{"type":"FeatureCollection","features":[{"type":"Feature","geometry":{"type":"Polygon","coordinates":[[[21.8636423,43.3252239],[21.8633633,43.3247244],[21.8643289,43.3241624],[21.8658524,43.3231633],[21.8667322,43.3215867],[21.8680411,43.3213213],[21.8698865,43.322336],[21.8722039,43.3234443],[21.875723,43.3241936],[21.8790274,43.3245526],[21.8823963,43.3243809],[21.8836194,43.3230228],[21.8854004,43.3213525],[21.8881899,43.3205876],[21.8908721,43.3207281],[21.8907648,43.3212588],[21.8900352,43.3212432],[21.8879538,43.3213213],[21.88628,43.3219145],[21.8847352,43.323257],[21.8840271,43.3245683],[21.8812805,43.3252707],[21.8781691,43.3251458],[21.8752724,43.3248648],[21.8714958,43.3241624],[21.8686634,43.3225858],[21.8673974,43.3224765],[21.8663889,43.323897],[21.8647581,43.3252863],[21.8636423,43.3252239]]]},"properties":{"name":"Medoševac"}},{"type":"Feature","geometry":{"type":"Polygon","coordinates":[[[21.8907243,43.3213165],[21.8908813,43.3206998],[21.8928916,43.3211916],[21.8964321,43.3218004],[21.89699,43.3223468],[21.8980199,43.3231273],[21.8995649,43.3244542],[21.9024805,43.3255761],[21.9050151,43.3261557],[21.9087461,43.3260113],[21.9087126,43.3265488],[21.9078046,43.3266552],[21.9065386,43.3267644],[21.9043714,43.3267801],[21.9014961,43.3262181],[21.898492,43.324704],[21.8957347,43.3230981],[21.8907243,43.3213165]]]},"properties":{"name":"Centar"}},{"type":"Feature","geometry":{"type":"Polygon","coordinates":[[[21.9087275,43.3265251],[21.9087503,43.3259974],[21.911211,43.3254775],[21.9154865,43.3256491],[21.9173909,43.3245858],[21.9199282,43.3243633],[21.9218652,43.3243797],[21.926304,43.3243789],[21.9287931,43.325019],[21.9311105,43.3250502],[21.9331704,43.3242072],[21.9352089,43.3229272],[21.9371723,43.3217954],[21.9373815,43.3225213],[21.9336103,43.3249057],[21.931132,43.3259595],[21.9288708,43.3259425],[21.9264115,43.3254178],[21.92345,43.3249877],[21.9191799,43.3255185],[21.9174419,43.3260648],[21.9155321,43.3265487],[21.9144592,43.3266892],[21.9128499,43.3265643],[21.9102535,43.3264863],[21.9087275,43.3265251]]]},"properties":{"name":"Delta - Lidl"}},{"type":"Feature","geometry":{"type":"Polygon","coordinates":[[[21.9215716,43.32439],[21.92199,43.3230748],[21.9232775,43.3208737],[21.9244362,43.3193126],[21.9248868,43.3172987],[21.9240178,43.311522],[21.9264961,43.3110771],[21.9266678,43.3172987],[21.9259382,43.3191253],[21.9245435,43.3217479],[21.9223628,43.3243939],[21.9215716,43.32439]]]},"properties":{"name":"Gabrovačka Reka"}},{"type":"Feature","geometry":{"type":"Polygon","coordinates":[[[21.9373884,43.3224849],[21.9371618,43.321743],[21.939346,43.3203586],[21.9414479,43.3192725],[21.9467695,43.3189291],[21.9516191,43.3196784],[21.9565114,43.318367],[21.9608029,43.3167746],[21.9649656,43.3150261],[21.9702013,43.3126529],[21.9738444,43.3121648],[21.9780119,43.3124969],[21.9778301,43.3130977],[21.9745358,43.3131525],[21.9696005,43.3140269],[21.9674547,43.3154944],[21.9634636,43.3168371],[21.9601591,43.3185232],[21.9571122,43.3194286],[21.9524575,43.320476],[21.9487436,43.3203653],[21.9457825,43.3199282],[21.9432502,43.3201796],[21.9406755,43.3206463],[21.9373884,43.3224849]]]},"properties":{"name":"Brzi Brod"}},{"type":"Feature","geometry":{"type":"Polygon","coordinates":[[[21.9778322,43.3131324],[21.9780515,43.3125159],[21.9802885,43.3125003],[21.9827776,43.3090653],[21.9823914,43.3070979],[21.9838076,43.3067232],[21.9855671,43.3067856],[21.9913607,43.3056926],[21.9956522,43.3040062],[21.9999008,43.3046308],[22.0026474,43.3056614],[22.0050507,43.3044434],[22.0071535,43.3026632],[22.0108442,43.30182],[22.0152216,43.3018824],[22.0188265,43.3016326],[22.0176249,43.3035689],[22.0130758,43.3030068],[22.0090847,43.3031317],[22.0063811,43.3048494],[22.004238,43.3062532],[22.0033314,43.3065558],[22.0023873,43.3065304],[21.9978409,43.3056926],[21.9950085,43.305474],[21.9919615,43.3064421],[21.9881849,43.3071291],[21.9851123,43.3081325],[21.9840651,43.3099709],[21.9826059,43.3123441],[21.9808893,43.3135307],[21.9778322,43.3131324]]]},"properties":{"name":"Niška Banja"}}]}