{"type":"FeatureCollection","features":[{"type":"Feature","geometry":{"type":"LineString","coordinates":[[21.8676253,43.3218562],[21.8678841,43.3219176],[21.8679472,43.3220211],[21.868413,43.3222092],[21.8687014,43.3223418],[21.8689723,43.3224687],[21.8693988,43.3226824],[21.8700881,43.3230287],[21.8704475,43.3232063],[21.8707063,43.323338],[21.8709424,43.3234541],[21.8710537,43.3235068],[21.8712146,43.323579],[21.8715164,43.3237078],[21.8718369,43.3238112],[21.8721722,43.3239068],[21.8724283,43.3239751],[21.8727368,43.3240395],[21.8734569,43.324178],[21.8740765,43.3243039],[21.874845,43.3244717],[21.8756322,43.3246453],[21.8759514,43.3247136],[21.8761177,43.3247458],[21.8763644,43.3247849],[21.8769331,43.3248492],[21.8777793,43.3249146],[21.8785867,43.3249517],[21.8791352,43.3249741],[21.8797333,43.3249966],[21.8801531,43.325018],[21.8804964,43.3250336],[21.8807646,43.3250444],[21.8810288,43.3250502],[21.8814141,43.3250366],[21.8816082,43.3250239],[21.8818201,43.3249917],[21.8819696,43.3249605],[21.8822117,43.3248888],[21.8824323,43.324818],[21.882551,43.324781],[21.8826717,43.3247356],[21.8827863,43.3246892],[21.8828842,43.3246463],[21.8829533,43.3246088],[21.8830277,43.3245688],[21.8831384,43.3245107],[21.8832161,43.3244639],[21.8833442,43.3243907],[21.8834046,43.3243492],[21.8834535,43.324298],[21.8835139,43.3242346],[21.8835876,43.3241512],[21.8836768,43.3240395],[21.8837459,43.3239497],[21.8837861,43.3239122],[21.8838639,43.3238409],[21.8839222,43.3237853],[21.8839833,43.3237287],[21.8840329,43.3236843],[21.884055,43.3236565],[21.8841053,43.3235843],[21.8841697,43.3234887],[21.8842459,43.3233836],[21.8842949,43.323309],[21.8843383,43.3232429],[21.8843886,43.3231697],[21.8844463,43.3230863],[21.8845087,43.3229955],[21.8845522,43.3229307],[21.8845978,43.322879],[21.8846441,43.3228238],[21.8846796,43.3227824],[21.8847246,43.3227307],[21.8847668,43.3226804],[21.8848533,43.3225794],[21.8849163,43.3225067],[21.884968,43.3224477],[21.8850344,43.3223701],[21.8851068,43.3222726],[21.8851611,43.3221872],[21.8851859,43.3221653],[21.8853619,43.3220627],[21.8856388,43.3219003],[21.8858788,43.3217583],[21.8861405,43.3216037],[21.8862418,43.3215428],[21.8864141,43.3214501],[21.8865547,43.3213737],[21.8866744,43.3213372],[21.8868198,43.3213218],[21.8869198,43.3213128],[21.8870884,43.3212765],[21.8872249,43.3212275],[21.8873388,43.3211513],[21.8873824,43.3211309],[21.8875319,43.3211001],[21.887774,43.3210538],[21.8878833,43.3210333],[21.8880556,43.3210084],[21.888244,43.3209899],[21.888545,43.3209699],[21.8888293,43.3209616],[21.8889655,43.3209577],[21.8891955,43.3209675],[21.8894617,43.3209816],[21.8897547,43.3209953],[21.8900227,43.3210082],[21.8901991,43.3210194],[21.8903218,43.3210296],[21.8904687,43.3210442],[21.8906387,43.321064],[21.8909091,43.3211212],[21.8911749,43.3212238],[21.8911963,43.3213194],[21.8915782,43.3214454],[21.8920245,43.3215919],[21.8925951,43.3217821],[21.8930149,43.3219226],[21.8933756,43.3220426],[21.8937647,43.3221757],[21.8941321,43.3222992],[21.8943863,43.3223855],[21.8944989,43.3224221],[21.8946089,43.3224538],[21.8947269,43.322487],[21.8948374,43.3225145],[21.8949844,43.3225505],[21.8950722,43.3225645],[21.8952587,43.3225924],[21.8955202,43.3226329],[21.8957093,43.322665],[21.8958923,43.3226972],[21.895948,43.3227046],[21.8961049,43.3227446],[21.896233,43.3227767],[21.8964013,43.3228246],[21.8965077,43.3228631],[21.8966628,43.3229294],[21.8968125,43.3229928],[21.8969344,43.3230558],[21.8971168,43.3231548],[21.8972026,43.3232138],[21.8973273,43.3233031],[21.8975133,43.3234538],[21.8977035,43.3236153],[21.897898,43.3237802],[21.8980944,43.3239461],[21.8982527,43.3240802],[21.8983854,43.3241914],[21.8985387,43.3243212],[21.8986577,43.3244173],[21.8987563,43.3244978],[21.8988421,43.3245631],[21.8989259,43.3246266],[21.8990902,43.3247475],[21.8992189,43.3248378],[21.8992954,43.324891],[21.8994054,43.3249607],[21.8994896,43.3250141],[21.8995857,43.3250749],[21.899676,43.3251299],[21.8997846,43.3251958],[21.8999485,43.3252792],[21.9000833,43.3253456],[21.9003388,43.3254714],[21.9005486,43.3255768],[21.9006861,43.3256427],[21.9008028,43.3256944],[21.9010375,43.3257953],[21.9013155,43.3259163],[21.9013904,43.3259473],[21.901533,43.3260075],[21.90171,43.3260807],[21.9018039,43.3261119],[21.9018971,43.3261427],[21.901999,43.3261737],[21.902127,43.3262142],[21.9022437,43.3262479],[21.9023383,43.3262742],[21.9024527,43.3263046],[21.9025461,43.3263225],[21.9026105,43.3263328],[21.9027047,43.3263366],[21.9027444,43.3263239],[21.9027598,43.326301],[21.9027531,43.3262819],[21.9026652,43.3262364],[21.9025372,43.3261948],[21.9026512,43.3260238],[21.9027274,43.3260133],[21.9028709,43.3260299],[21.903073,43.3260494],[21.9030949,43.3260655],[21.9031364,43.326124],[21.9032075,43.3262021],[21.9032671,43.3262447],[21.903357,43.3262957],[21.9034387,43.3263281],[21.9035453,43.3263417],[21.9037445,43.326372],[21.9039872,43.3264013],[21.904219,43.3264278],[21.9046041,43.3264491],[21.9048978,43.3264578],[21.905323,43.3264774],[21.9058205,43.3264842],[21.9063731,43.3264861],[21.9067124,43.3264686],[21.9072984,43.3264335],[21.9076833,43.3263944],[21.9082305,43.3263486],[21.9087024,43.3263048],[21.9093802,43.3261012],[21.9088494,43.3262603],[21.9092387,43.326249],[21.9094764,43.3262178],[21.909876,43.3261642],[21.9100622,43.3261377],[21.9103977,43.3261154],[21.9106981,43.326092],[21.9108105,43.3260851],[21.9109784,43.32609],[21.911136,43.3260959],[21.911374,43.3261047],[21.9115249,43.3261091],[21.9117415,43.3261149],[21.9118354,43.3261193],[21.9120761,43.3261496],[21.9123343,43.3261798],[21.9126575,43.3262188],[21.9129264,43.3262574],[21.9131872,43.3262939],[21.9135084,43.3263364],[21.9136962,43.3263617],[21.9137649,43.3263724],[21.9138568,43.3263841],[21.9139983,43.3263933],[21.9141042,43.3264016],[21.9141552,43.3264036],[21.914245,43.326406],[21.9143416,43.326407],[21.9144428,43.3264089],[21.9145629,43.3264094],[21.9146882,43.3264089],[21.9148317,43.326406],[21.9149833,43.3264031],[21.9150933,43.3263987],[21.9152555,43.3263841],[21.9153408,43.3263777],[21.9156331,43.3263212],[21.916136,43.326186],[21.91636,43.3261241],[21.916643,43.3260072],[21.9169125,43.3258926],[21.9171995,43.3257721],[21.9173953,43.3256984],[21.9176488,43.3256067],[21.9178511,43.3255322],[21.9180603,43.3254605],[21.9182172,43.3254059],[21.9183962,43.3253427],[21.9185116,43.325321],[21.9187389,43.3252737],[21.9189763,43.3252273],[21.9191627,43.3251907],[21.9193739,43.3251503],[21.9195007,43.3251254],[21.9195442,43.3251164],[21.9196777,43.3251015],[21.9198634,43.3250825],[21.9200418,43.3250649],[21.920245,43.3250444],[21.920416,43.3250268],[21.9206265,43.3250068],[21.9207995,43.3249883],[21.9209269,43.3249746],[21.9210121,43.3249654],[21.9211395,43.3249366],[21.9212387,43.3249117],[21.9213194,43.324889],[21.9214305,43.3248176],[21.9216258,43.3246982],[21.9217224,43.3247274],[21.9217919,43.3247891],[21.9218888,43.324825],[21.9220957,43.3248373],[21.9222519,43.3248246],[21.9224913,43.3248007],[21.9226657,43.3247856],[21.9231793,43.3247524],[21.9235032,43.3247295],[21.9237895,43.3247143],[21.9240141,43.3247041],[21.9242872,43.3246907],[21.9246096,43.3247065],[21.9248389,43.3247178],[21.9249891,43.3247236],[21.9251581,43.3247285],[21.9252447,43.3247297],[21.9253694,43.3247467],[21.9256041,43.3247774],[21.9259421,43.3248214],[21.9263444,43.3249193],[21.9267936,43.325032],[21.9271805,43.325132],[21.9274555,43.3252013],[21.9277284,43.3252676],[21.9279323,43.325319],[21.9282239,43.3253828],[21.9283882,43.3254184],[21.9286303,43.3254691],[21.9287872,43.3255008],[21.928863,43.325516],[21.9290829,43.325533],[21.9293914,43.3255531],[21.9296958,43.3255515],[21.9299754,43.3255476],[21.9302664,43.3255413],[21.9304349,43.3255327],[21.9307299,43.3255029],[21.9312026,43.3254263],[21.931395,43.3253921],[21.9318142,43.3252819],[21.9321629,43.3251639],[21.9324727,43.3250419],[21.9328158,43.3248914],[21.9331283,43.3247295],[21.9333951,43.3245734],[21.9336506,43.3244109],[21.9339819,43.3242114],[21.9342033,43.324078],[21.9343588,43.3239511],[21.9344707,43.323881],[21.9346156,43.3237835],[21.9347944,43.3236653],[21.9349753,43.3235472],[21.9352033,43.3234126],[21.935536,43.323197],[21.935886,43.3229697],[21.9363957,43.3226409],[21.9365694,43.3225306],[21.9369509,43.3223111],[21.9375369,43.3219823],[21.9379751,43.321711],[21.9384395,43.3214477],[21.9389397,43.3211677],[21.9392361,43.3209979],[21.9395017,43.3208408],[21.9397276,43.3207086],[21.9399275,43.320593],[21.9400549,43.3205242],[21.9401984,43.3204476],[21.9403385,43.320373],[21.9404927,43.320289],[21.9406483,43.3202154],[21.9407895,43.320147],[21.9409829,43.3200783],[21.9411386,43.3200268],[21.9412513,43.3199922],[21.941376,43.3199556],[21.9415121,43.3199248],[21.9416429,43.319896],[21.9417435,43.319878],[21.941891,43.3198624],[21.9420466,43.3198521],[21.9421505,43.3198409],[21.9422647,43.3198309],[21.9424992,43.3196667],[21.943061,43.3196386],[21.9434097,43.319626],[21.9437249,43.3196201],[21.9439877,43.3196113],[21.944264,43.3196016],[21.9443646,43.3195977],[21.9445443,43.3195889],[21.9447321,43.3195762],[21.9449969,43.3195591],[21.9453141,43.3195396],[21.9456031,43.3195201],[21.9459779,43.3194972],[21.9461704,43.319484],[21.9464166,43.3194643],[21.9466938,43.3194605],[21.9469191,43.3194556],[21.9470465,43.3194571],[21.9472953,43.3194649],[21.9474609,43.3194756],[21.947584,43.3194843],[21.9478029,43.3195166],[21.9480034,43.3195468],[21.9482287,43.3195859],[21.948344,43.3196054],[21.9485036,43.3196561],[21.9486512,43.3197039],[21.9486166,43.3198484],[21.9485938,43.3199457],[21.9488588,43.3199357],[21.949068,43.3199802],[21.9493539,43.3200664],[21.9496208,43.3201406],[21.949752,43.3201792],[21.9499963,43.320225],[21.9503356,43.3202884],[21.9505468,43.3203294],[21.9506988,43.3203568],[21.9509939,43.3203821],[21.9512889,43.3204036],[21.9516651,43.3203742],[21.9520004,43.3203469],[21.9522223,43.3203266],[21.9525368,43.3202591],[21.9529727,43.3201713],[21.953367,43.3200884],[21.9536647,43.3200191],[21.9540086,43.3199392],[21.954299,43.3198464],[21.9546263,43.3197469],[21.9549079,43.319663],[21.9554007,43.3195118],[21.9557271,43.3194134],[21.9561724,43.3192807],[21.9566739,43.3191304],[21.9570951,43.3190153],[21.9575081,43.3189157],[21.9577307,43.3188523],[21.9580191,43.3187704],[21.9582135,43.3187138],[21.9583959,43.3186542],[21.9585461,43.318583],[21.9587179,43.3184955],[21.9591571,43.3184922],[21.9595828,43.3183264],[21.9599503,43.3181625],[21.9603405,43.3179527],[21.9607134,43.3177537],[21.9611398,43.3175497],[21.9616266,43.3173214],[21.9620451,43.3171224],[21.9623321,43.3169926],[21.9630289,43.3166783],[21.9633586,43.3165201],[21.9637762,43.316329],[21.9642384,43.3161552],[21.9647373,43.315962],[21.9653113,43.3157278],[21.9656975,43.3155756],[21.9662945,43.3153542],[21.9666148,43.315276],[21.9668079,43.3152282],[21.9669662,43.3151648],[21.9671673,43.3150731],[21.9675747,43.3148699],[21.9676852,43.3148146],[21.9678546,43.3146797],[21.9680343,43.3145333],[21.9682167,43.314387],[21.9683709,43.3142591],[21.9687303,43.3140005],[21.9690428,43.3138444],[21.96937,43.3136883],[21.9695578,43.313618],[21.9698153,43.31354],[21.9702793,43.3134053],[21.9704559,43.3133626],[21.9707836,43.3133058],[21.9711725,43.3132433],[21.9715292,43.3131945],[21.9718001,43.3131419],[21.9720683,43.3130911],[21.9722852,43.3130503],[21.9726393,43.3128962],[21.9731785,43.3128209],[21.9734937,43.3127751],[21.9740516,43.312698],[21.9744633,43.3126336],[21.9748308,43.3126063],[21.9750869,43.3125916],[21.9753766,43.312578],[21.9759198,43.3125672],[21.9762576,43.3125663],[21.9766064,43.3126063],[21.9774312,43.3127175],[21.9778723,43.3127986],[21.9780778,43.31284],[21.9785338,43.3129141],[21.9787363,43.3129541],[21.9790032,43.3130098],[21.9792083,43.31304],[21.9793666,43.3130459],[21.9796121,43.3130576],[21.9798092,43.3130537],[21.9799138,43.3130478],[21.9800962,43.3130303],[21.9802957,43.3129878],[21.9805455,43.312919],[21.9807788,43.3128507],[21.9809787,43.3127726],[21.9812465,43.3126249],[21.9814239,43.3124867],[21.9815527,43.3123482],[21.9817914,43.3120222],[21.9820019,43.3117246],[21.982195,43.3114572],[21.982411,43.3111674],[21.9825571,43.3109693],[21.9828254,43.3105917],[21.9830091,43.310335],[21.9832411,43.309971],[21.9833672,43.3097788],[21.9834973,43.3095045],[21.9836581,43.3091913],[21.983748,43.3090498],[21.9838459,43.3088917],[21.9839318,43.3087442],[21.9840042,43.3086359],[21.9840954,43.3084651],[21.9841611,43.3083568],[21.9842422,43.3082231],[21.9844304,43.3081347],[21.9849427,43.3078966],[21.9856052,43.3075785],[21.9860505,43.3073716],[21.9864045,43.3072174],[21.9866915,43.3071022],[21.986866,43.3070437],[21.9871555,43.3069617],[21.9876277,43.3068348],[21.9880702,43.3067411],[21.9885047,43.3066709],[21.9889902,43.3066045],[21.9892745,43.3065791],[21.9897828,43.3065382],[21.9900859,43.3065138],[21.9903207,43.3064981],[21.9905258,43.3064582],[21.9908825,43.3063957],[21.991187,43.3063284],[21.9913426,43.3062883],[21.9915793,43.3062045],[21.991755,43.3061528],[21.991992,43.3060526],[21.9922606,43.3059313],[21.9925744,43.3057985],[21.9929258,43.3056521],[21.9933174,43.3054843],[21.9937412,43.3053164],[21.9941703,43.3051486],[21.9945726,43.3050295],[21.9948811,43.3049475],[21.995321,43.3048812],[21.9958494,43.3048089],[21.9963716,43.3048001],[21.9969563,43.3047464],[21.9972352,43.304763],[21.9977797,43.3048157],[21.9983631,43.3048987],[21.9987319,43.3049689],[21.9991235,43.3050744],[21.9995137,43.3052129],[22.0002514,43.3055076],[22.0007144,43.3056827],[22.0010297,43.305795],[22.0012348,43.3058916],[22.001352,43.3059283],[22.0015795,43.305998],[22.0017739,43.3060458],[22.0019724,43.3060848],[22.0021119,43.3061124],[22.0023238,43.3061346],[22.0025075,43.3061346],[22.0027422,43.3061229],[22.0029608,43.3061112],[22.0031834,43.3060868],[22.0033967,43.3060546],[22.003768,43.3059456],[22.0040229,43.3058343],[22.0043207,43.3056857],[22.0045581,43.3055422],[22.0048075,43.3053968],[22.0049388,43.3052907],[22.0050345,43.3051878],[22.0051673,43.3050493],[22.0052638,43.3049429],[22.0053792,43.3048199],[22.0054664,43.3047288],[22.0055921,43.304608],[22.0057128,43.3044948],[22.0058214,43.3044003],[22.00593,43.3042969],[22.0060333,43.3042041],[22.0061285,43.3041212],[22.0062264,43.3040392],[22.0063525,43.303927],[22.0064276,43.3038626],[22.0065845,43.3037513],[22.0067333,43.3036498],[22.0068613,43.3035741],[22.0070276,43.3034844],[22.0071966,43.3033887],[22.0073119,43.3033214],[22.0074729,43.3032296],[22.007611,43.3031672],[22.0077639,43.3031086],[22.0079435,43.3030336],[22.0081084,43.3029614],[22.0082908,43.3028872],[22.0084786,43.3028199],[22.0086985,43.3027438],[22.0089091,43.3026813],[22.0092001,43.3026208],[22.0095059,43.3025701],[22.0097593,43.302533],[22.0101707,43.3024756],[22.0104925,43.3024365],[22.010694,43.30241],[22.0110411,43.3024043],[22.0114139,43.3023975],[22.0117049,43.3023965],[22.0121394,43.3024212],[22.0124961,43.3024398],[22.012822,43.3024622],[22.013164,43.3024748],[22.0135488,43.3024856],[22.0139203,43.3024973],[22.0142158,43.3025105],[22.0145672,43.3025076],[22.0148659,43.3025178],[22.0151988,43.3025476],[22.0153691,43.3024958],[22.0154858,43.3025095],[22.0156508,43.3025291],[22.0159471,43.3025847],[22.0161709,43.3026191],[22.0162822,43.3026333],[22.0163506,43.3026201],[22.0165364,43.3026362],[22.0167167,43.3026709],[22.0170708,43.3027304],[22.0173137,43.3027781],[22.0174177,43.3027883],[22.0174603,43.3027802],[22.0174989,43.3027604],[22.0175751,43.3025479],[22.0176355,43.3022918],[22.0177843,43.3017388]]},"properties":{"tip":"bici","label":"Biciklistička staza","uloga":"osa","duzina_m":14027.7,"km_od":0.0,"km_do":14.03,"deonica":"Delta - Lidl"}},{"type":"Feature","geometry":{"type":"LineString","coordinates":[[21.9248655,43.3122596],[21.9250105,43.3122133],[21.925216,43.3121468],[21.9252575,43.3122226],[21.9253262,43.3124108],[21.9254688,43.3127744],[21.9254812,43.3128887],[21.9255432,43.3130496],[21.92564,43.3133436],[21.9257008,43.3135348],[21.9257564,43.3137449],[21.9257982,43.3139274],[21.9258406,43.3141136],[21.92591,43.314448],[21.9259968,43.3148138],[21.9260305,43.3151795],[21.9260194,43.315878],[21.9259744,43.3166242],[21.9259253,43.3169156],[21.9258807,43.3171382],[21.9258309,43.3173946],[21.9258046,43.31752],[21.9257792,43.3176324],[21.9257581,43.3177175],[21.9257334,43.3178122],[21.9256833,43.3179942],[21.9256467,43.3181261],[21.9255202,43.3185057],[21.9254568,43.3187137],[21.9254295,43.3188198],[21.9254454,43.3188553],[21.9254372,43.3188997],[21.9253399,43.3191275],[21.9252834,43.3192579],[21.925156,43.3195199],[21.9250417,43.3197508],[21.9249762,43.3198772],[21.9249025,43.3200273],[21.9248598,43.3201154],[21.9247762,43.320266],[21.9246848,43.3204062],[21.9244882,43.3207065],[21.9244037,43.3208323],[21.9243118,43.3209802],[21.9242523,43.3210735],[21.9241868,43.3211712],[21.924089,43.3213218],[21.9240027,43.3214582],[21.9238637,43.3216612],[21.9238061,43.3216633],[21.9237538,43.3216435],[21.9236475,43.3215994],[21.9234289,43.3215192],[21.9233852,43.3215734],[21.9233366,43.3216594],[21.9233475,43.3216868],[21.9234806,43.3217345],[21.9236455,43.3217909],[21.9237637,43.3218321],[21.9237592,43.3218465],[21.9236908,43.3219212],[21.9236312,43.3220012],[21.9235017,43.3221904],[21.9234065,43.3223324],[21.9232952,43.3225104],[21.9231704,43.3226987],[21.9230135,43.32295],[21.9227882,43.3233129],[21.9224744,43.3237929],[21.9222179,43.3241791],[21.9220369,43.3244561],[21.921892,43.3246874],[21.9218706,43.3247215],[21.9218247,43.3247442],[21.9217539,43.32474],[21.9217224,43.3247274]]},"properties":{"tip":"bici","label":"Biciklistička staza","uloga":"krak","duzina_m":1592.8,"km_od":5.06,"km_do":5.07,"deonica":"Gabrovačka Reka"}},{"type":"Feature","geometry":{"type":"LineString","coordinates":[[21.9216293,43.3247021],[21.9216018,43.3246925],[21.9216376,43.3246499],[21.9216882,43.3245906],[21.9217429,43.3245126],[21.9218154,43.3243984],[21.9218809,43.3243044],[21.9219654,43.3241801],[21.9220316,43.3240726],[21.9221457,43.3238967],[21.9223006,43.3236561],[21.9224089,43.3234971],[21.9225122,43.3233367],[21.9226891,43.3230598],[21.92282,43.3228643],[21.9229064,43.3227263],[21.9230877,43.3224537],[21.9231862,43.3223089],[21.9233561,43.322069],[21.9234773,43.3218782],[21.9236964,43.321524],[21.9239963,43.3210692],[21.9241489,43.3208407],[21.9242274,43.3207135],[21.9243496,43.3205277],[21.9244788,43.3203174],[21.9245735,43.3201655],[21.9246296,43.3200639],[21.9247612,43.3198301],[21.9249053,43.3195605],[21.9249981,43.3193799],[21.9251054,43.3191443],[21.9252783,43.3187323],[21.9253606,43.3185144],[21.9254519,43.3182508],[21.9255344,43.3179978],[21.9256217,43.3176607],[21.9256762,43.3174373],[21.9257258,43.3171706],[21.925774,43.3168653],[21.9258191,43.316536],[21.925837,43.3163864],[21.9258529,43.3160364],[21.9258616,43.3158964],[21.9258631,43.3155725],[21.9258581,43.3153873],[21.9258283,43.3151062],[21.9258164,43.3149421],[21.9258035,43.3148041],[21.9257755,43.314587],[21.9257474,43.3144223],[21.9257179,43.3142766],[21.9256827,43.3141074],[21.9256472,43.3139384],[21.9256248,43.3138302],[21.9255965,43.313696],[21.9255548,43.3135579],[21.9255121,43.3134112],[21.9254545,43.3132471],[21.9253844,43.3130417],[21.925307,43.3128167],[21.9251256,43.3123774],[21.9250855,43.3122796],[21.9250755,43.3122597],[21.9250616,43.3122427],[21.9250139,43.3122561],[21.9249841,43.3122658],[21.9249617,43.3122301]]},"properties":{"tip":"bici","label":"Biciklistička staza","uloga":"krak","duzina_m":1474.2,"km_od":5.05,"km_do":5.05,"deonica":"Gabrovačka Reka"}},{"type":"Feature","geometry":{"type":"LineString","coordinates":[[21.909023,43.3258469],[21.9090096,43.3260876],[21.9090041,43.3261793],[21.9090093,43.3260883],[21.9091315,43.3260869],[21.9092383,43.3260854],[21.9093802,43.3261012],[21.9097224,43.3260651],[21.9098663,43.3260503],[21.910044,43.3260347],[21.9101751,43.3260228],[21.9103299,43.3260111],[21.9105921,43.3260033],[21.9108276,43.3260008],[21.9110402,43.3260004],[21.9112795,43.3260082],[21.9114948,43.3260184],[21.9118287,43.3260423],[21.9122076,43.3260828],[21.9129599,43.3261956],[21.9133461,43.3262434],[21.9135794,43.3262697],[21.9138148,43.3262966],[21.91402,43.326317],[21.9141799,43.3263364],[21.9144226,43.3263432],[21.9146616,43.3263411],[21.9148199,43.3263333],[21.9150492,43.3263177],[21.9153817,43.3262746],[21.9155638,43.3262435],[21.9158186,43.3261674],[21.9158923,43.326148],[21.9159017,43.3261451],[21.916064,43.3265251],[21.9162422,43.3269321],[21.9162436,43.3269896],[21.9162395,43.3270887]]},"properties":{"tip":"bici","label":"Biciklistička staza","uloga":"krak","duzina_m":720.7,"km_od":3.9,"km_do":4.55,"deonica":"Delta - Lidl"}},{"type":"Feature","geometry":{"type":"LineString","coordinates":[[21.9364536,43.3186557],[21.9364814,43.3187468],[21.9367586,43.3189737],[21.9371341,43.3192822],[21.9372205,43.3193249],[21.9373447,43.3193711],[21.9375732,43.3194304],[21.9379536,43.3195046],[21.9382764,43.3195668],[21.9390126,43.3197538],[21.9392729,43.3198189],[21.9397415,43.3199285],[21.9401267,43.3200532],[21.9402916,43.3201074],[21.9403612,43.3201067],[21.940544,43.3200561],[21.9408761,43.3199383],[21.9410807,43.3198638],[21.9412665,43.3198205],[21.9414195,43.3197778],[21.941691,43.3197307],[21.9420546,43.3196924],[21.9424992,43.3196667]]},"properties":{"tip":"bici","label":"Biciklistička staza","uloga":"krak","duzina_m":549.4,"km_od":6.79,"km_do":6.98,"deonica":null}},{"type":"Feature","geometry":{"type":"LineString","coordinates":[[21.9665201,43.3127807],[21.9664563,43.3128784],[21.9662766,43.3130326],[21.9659735,43.313177],[21.9658823,43.3132512],[21.9658743,43.3133273],[21.965944,43.3134561],[21.9660835,43.3136669],[21.9662176,43.3138308],[21.9663382,43.3139949],[21.9664133,43.3141413],[21.9664938,43.3142954],[21.9665769,43.3144164],[21.9667003,43.3145413],[21.9667861,43.3146018],[21.9668151,43.3146969],[21.9667789,43.3147896],[21.9666622,43.3148959],[21.9664677,43.315016],[21.966398,43.3151067],[21.9662867,43.3152833],[21.9662945,43.3153542],[21.9663458,43.3154193],[21.9664732,43.3156066],[21.9666797,43.3159354],[21.9668487,43.3161852]]},"properties":{"tip":"bici","label":"Biciklistička staza","uloga":"krak","duzina_m":445.3,"km_od":9.08,"km_do":9.14,"deonica":"Brzi Brod"}},{"type":"Feature","geometry":{"type":"LineString","coordinates":[[22.0086985,43.3027438],[22.0087047,43.3026922],[22.0087236,43.3026654],[22.0087603,43.3026033],[22.0088328,43.3025476],[22.0089471,43.3025028],[22.0090514,43.302463],[22.0091737,43.3024598],[22.0092691,43.302436],[22.0093773,43.3023948],[22.0094409,43.3023427],[22.0094767,43.3022712],[22.0094836,43.3022025],[22.0095083,43.3021121],[22.0095129,43.3019994],[22.0095275,43.3018325],[22.0095195,43.3016581],[22.0095414,43.3015149],[22.0095632,43.3013559],[22.009595,43.3012253],[22.009595,43.3012267]]},"properties":{"tip":"bici","label":"Biciklistička staza","uloga":"krak","duzina_m":206.5,"km_od":13.19,"km_do":13.26,"deonica":"Niška Banja"}},{"type":"Feature","geometry":{"type":"LineString","coordinates":[[21.903073,43.3260494],[21.9030987,43.3259504],[21.9031881,43.3257943],[21.9033173,43.3257075],[21.9034822,43.3257437],[21.9037851,43.3258201],[21.9039712,43.3254799],[21.904069,43.3253023],[21.9041417,43.3251758],[21.9042291,43.3250226],[21.9043243,43.3248741]]},"properties":{"tip":"bici","label":"Biciklistička staza","uloga":"krak","duzina_m":198.0,"km_od":3.39,"km_do":3.39,"deonica":null}},{"type":"Feature","geometry":{"type":"LineString","coordinates":[[22.0012134,43.305885],[22.001237,43.3058583],[22.0012666,43.3058231],[22.0012988,43.305782],[22.0013284,43.3057389],[22.0013471,43.3057063],[22.0013604,43.3056884],[22.0013672,43.3056731],[22.0013794,43.305654],[22.0013939,43.3056211],[22.00141,43.3055733],[22.0013611,43.3053791],[22.0012263,43.3051087],[22.0009988,43.3046458],[22.000874,43.3042808]]},"properties":{"tip":"bici","label":"Biciklistička staza","uloga":"krak","duzina_m":188.8,"km_od":12.42,"km_do":12.43,"deonica":"Niška Banja"}},{"type":"Feature","geometry":{"type":"LineString","coordinates":[[21.9848195,43.3079552],[21.9842422,43.3082231],[21.983642,43.3075219],[21.9831458,43.3074594]]},"properties":{"tip":"bici","label":"Biciklistička staza","uloga":"krak","duzina_m":188.0,"km_od":10.94,"km_do":11.0,"deonica":"Niška Banja"}},{"type":"Feature","geometry":{"type":"LineString","coordinates":[[21.9295379,43.3255526],[21.9295714,43.3255077],[21.9296009,43.3254306],[21.9295942,43.3253243],[21.9295674,43.325134],[21.92955,43.324973],[21.9295647,43.3248755],[21.9295607,43.3247086],[21.9295325,43.3245194],[21.929499,43.3243935],[21.9294405,43.324193],[21.9294338,43.3241198],[21.9294686,43.323995]]},"properties":{"tip":"bici","label":"Biciklistička staza","uloga":"krak","duzina_m":175.6,"km_od":5.71,"km_do":5.71,"deonica":null}},{"type":"Feature","geometry":{"type":"LineString","coordinates":[[21.9814034,43.3124961],[21.9811027,43.3123931],[21.981139,43.3122262],[21.9811807,43.3120842],[21.9813014,43.3118344],[21.9813685,43.311647],[21.981398,43.3114577],[21.9814516,43.3113191]]},"properties":{"tip":"bici","label":"Biciklistička staza","uloga":"krak","duzina_m":150.0,"km_od":10.41,"km_do":10.43,"deonica":"Niška Banja"}},{"type":"Feature","geometry":{"type":"LineString","coordinates":[[21.9775298,43.3127333],[21.9781649,43.3125429],[21.978451,43.3124663],[21.9786179,43.3124215],[21.9787073,43.3123897],[21.9787888,43.3123261],[21.9788543,43.3122466],[21.9789457,43.3121208]]},"properties":{"tip":"bici","label":"Biciklistička staza","uloga":"krak","duzina_m":138.5,"km_od":10.08,"km_do":10.13,"deonica":null}},{"type":"Feature","geometry":{"type":"LineString","coordinates":[[21.9092387,43.326249],[21.9088494,43.3262603],[21.9084019,43.326247],[21.9083482,43.3262236],[21.9083878,43.3261909],[21.9087747,43.3261221],[21.9087774,43.3261963],[21.9087774,43.3260343]]},"properties":{"tip":"bici","label":"Biciklistička staza","uloga":"krak","duzina_m":136.1,"km_od":3.84,"km_do":4.0,"deonica":"Centar"}},{"type":"Feature","geometry":{"type":"LineString","coordinates":[[21.9260218,43.3157155],[21.9260933,43.3157762],[21.9261282,43.3158487],[21.9261754,43.315912],[21.9262337,43.3159715],[21.9257597,43.3161909],[21.9252817,43.3164063],[21.9252807,43.3164056]]},"properties":{"tip":"bici","label":"Biciklistička staza","uloga":"krak","duzina_m":124.6,"km_od":null,"km_do":null,"deonica":"Gabrovačka Reka"}},{"type":"Feature","geometry":{"type":"LineString","coordinates":[[21.9158229,43.3261658],[21.9158005,43.3261789],[21.9156331,43.3263212],[21.91636,43.3261241],[21.9159017,43.3261451]]},"properties":{"tip":"bici","label":"Biciklistička staza","uloga":"krak","duzina_m":123.0,"km_od":4.53,"km_do":4.58,"deonica":"Delta - Lidl"}},{"type":"Feature","geometry":{"type":"LineString","coordinates":[[21.9259396,43.3168391],[21.9260022,43.3167343],[21.9260201,43.316657],[21.9260509,43.3165883],[21.9260944,43.3165246],[21.9261323,43.3164597],[21.9261642,43.316389],[21.9261688,43.3163577],[21.9261504,43.3163357],[21.9261227,43.3162994],[21.9263025,43.3162148],[21.9261217,43.3162994],[21.9258942,43.3164056]]},"properties":{"tip":"bici","label":"Biciklistička staza","uloga":"krak","duzina_m":121.0,"km_od":null,"km_do":null,"deonica":"Gabrovačka Reka"}},{"type":"Feature","geometry":{"type":"LineString","coordinates":[[21.8850732,43.3223191],[21.8840672,43.3217115]]},"properties":{"tip":"bici","label":"Biciklistička staza","uloga":"krak","duzina_m":105.8,"km_od":1.64,"km_do":1.65,"deonica":null}},{"type":"Feature","geometry":{"type":"LineString","coordinates":[[21.9486502,43.3197009],[21.9486166,43.3198484],[21.9485925,43.3199506],[21.94828,43.3206104]]},"properties":{"tip":"bici","label":"Biciklistička staza","uloga":"krak","duzina_m":105.8,"km_od":7.48,"km_do":7.51,"deonica":"Brzi Brod"}},{"type":"Feature","geometry":{"type":"LineString","coordinates":[[21.9258274,43.3247719],[21.9258273,43.3247712],[21.9259389,43.3245133],[21.9260059,43.3244349],[21.9260319,43.3244368],[21.926115,43.3244709],[21.9261512,43.3244953],[21.9261593,43.3245138],[21.9261418,43.3246275],[21.92611,43.3246819],[21.9260607,43.324727],[21.9260365,43.3247568],[21.9260687,43.3248519]]},"properties":{"tip":"bici","label":"Biciklistička staza","uloga":"krak","duzina_m":96.8,"km_od":5.4,"km_do":5.42,"deonica":"Delta - Lidl"}},{"type":"Feature","geometry":{"type":"LineString","coordinates":[[21.9026512,43.3260238],[21.9025256,43.325957],[21.9023969,43.3258828],[21.9023566,43.3258379],[21.9023714,43.3257814],[21.9023821,43.3257609],[21.9024143,43.325757],[21.9025068,43.3257931],[21.902596,43.3258072],[21.9026634,43.3258138],[21.9027395,43.3258101],[21.9028059,43.3257892],[21.9028448,43.3257687],[21.9028475,43.3256828],[21.9028488,43.3256243]]},"properties":{"tip":"bici","label":"Biciklistička staza","uloga":"krak","duzina_m":96.6,"km_od":3.36,"km_do":3.37,"deonica":"Centar"}},{"type":"Feature","geometry":{"type":"LineString","coordinates":[[21.8948374,43.3225145],[21.895056,43.3225437],[21.8951881,43.3225462],[21.8952726,43.3225437],[21.895339,43.3225427],[21.8955348,43.3225618],[21.8956387,43.3225608],[21.8956622,43.3225408],[21.8956796,43.3224564],[21.8956823,43.3224174]]},"properties":{"tip":"bici","label":"Biciklistička staza","uloga":"krak","duzina_m":82.0,"km_od":2.53,"km_do":2.59,"deonica":"Centar"}},{"type":"Feature","geometry":{"type":"LineString","coordinates":[[21.9186947,43.3252868],[21.9189253,43.3251034],[21.9189039,43.324961],[21.9187993,43.3248185],[21.9187564,43.324678]]},"properties":{"tip":"bici","label":"Biciklistička staza","uloga":"krak","duzina_m":77.5,"km_od":4.8,"km_do":4.83,"deonica":"Delta - Lidl"}},{"type":"Feature","geometry":{"type":"LineString","coordinates":[[21.8906257,43.3212727],[21.8906602,43.3211724],[21.8906762,43.3211218],[21.8906854,43.3210741],[21.8906948,43.3209603],[21.8908149,43.3206302]]},"properties":{"tip":"bici","label":"Biciklistička staza","uloga":"krak","duzina_m":73.3,"km_od":2.15,"km_do":2.15,"deonica":"Medoševac"}},{"type":"Feature","geometry":{"type":"LineString","coordinates":[[21.8911963,43.3213194],[21.8911195,43.3212803],[21.8910251,43.3212254],[21.8909039,43.321182],[21.8907847,43.3211531],[21.8906844,43.321135],[21.890595,43.3211191],[21.8905513,43.3210982],[21.8905076,43.3210714],[21.8904638,43.3210548],[21.8904251,43.3210411]]},"properties":{"tip":"bici","label":"Biciklistička staza","uloga":"krak","duzina_m":70.6,"km_od":2.13,"km_do":2.2,"deonica":"Medoševac"}},{"type":"Feature","geometry":{"type":"LineString","coordinates":[[21.8907681,43.3213345],[21.8908486,43.3211104],[21.8908744,43.3210692],[21.8909062,43.3210226],[21.8909913,43.320802]]},"properties":{"tip":"bici","label":"Biciklistička staza","uloga":"krak","duzina_m":62.1,"km_od":2.16,"km_do":2.16,"deonica":"Centar"}},{"type":"Feature","geometry":{"type":"LineString","coordinates":[[21.9253464,43.3247439],[21.9253913,43.3247395],[21.9254302,43.3247327],[21.9254705,43.3247205],[21.9255268,43.3247019],[21.9255757,43.324681],[21.9256146,43.3246595],[21.9256535,43.3246254],[21.9257159,43.3245707],[21.9257934,43.3244293],[21.9258229,43.3243684]]},"properties":{"tip":"bici","label":"Biciklistička staza","uloga":"krak","duzina_m":60.9,"km_od":5.36,"km_do":5.39,"deonica":"Delta - Lidl"}},{"type":"Feature","geometry":{"type":"LineString","coordinates":[[21.8759429,43.3247256],[21.8760777,43.3246452],[21.8762165,43.3246393],[21.8763144,43.324532],[21.8764552,43.324372]]},"properties":{"tip":"bici","label":"Biciklistička staza","uloga":"krak","duzina_m":60.8,"km_od":0.75,"km_do":0.78,"deonica":"Medoševac"}},{"type":"Feature","geometry":{"type":"LineString","coordinates":[[21.9377887,43.3218261],[21.9376382,43.3217964],[21.9375398,43.3218538],[21.9373305,43.3217721],[21.9372631,43.3217795],[21.9373305,43.3217721]]},"properties":{"tip":"bici","label":"Biciklistička staza","uloga":"krak","duzina_m":53.1,"km_od":6.49,"km_do":6.52,"deonica":"Brzi Brod"}},{"type":"Feature","geometry":{"type":"LineString","coordinates":[[21.9367927,43.3224018],[21.9368175,43.3223872],[21.9368369,43.3222589],[21.9369543,43.3221925],[21.93703,43.3219998]]},"properties":{"tip":"bici","label":"Biciklistička staza","uloga":"krak","duzina_m":51.2,"km_od":6.41,"km_do":6.46,"deonica":"Delta - Lidl"}},{"type":"Feature","geometry":{"type":"LineString","coordinates":[[21.9210121,43.3249654],[21.9206837,43.3249084]]},"properties":{"tip":"bici","label":"Biciklistička staza","uloga":"krak","duzina_m":27.3,"km_od":4.97,"km_do":4.99,"deonica":"Delta - Lidl"}},{"type":"Feature","geometry":{"type":"LineString","coordinates":[[21.8956387,43.3225608],[21.8956051,43.3226463]]},"properties":{"tip":"bici","label":"Biciklistička staza","uloga":"krak","duzina_m":9.9,"km_od":2.59,"km_do":2.59,"deonica":"Centar"}},{"type":"Feature","geometry":{"type":"LineString","coordinates":[[21.8817816,43.3249956],[21.8817967,43.3249766],[21.881731,43.3249395]]},"properties":{"tip":"bici","label":"Biciklistička staza","uloga":"krak","duzina_m":9.2,"km_od":1.23,"km_do":1.23,"deonica":"Medoševac"}},{"type":"Feature","geometry":{"type":"LineString","coordinates":[[21.9372748,43.3215346],[21.9374367,43.3215967],[21.9375837,43.3216611],[21.9376632,43.3217196],[21.9377198,43.3217348],[21.9379846,43.3215882],[21.9381753,43.3214863],[21.9384445,43.321328],[21.9389225,43.3210475],[21.9391937,43.3208986],[21.939449,43.3207584],[21.9396369,43.3206469],[21.939955,43.3204838],[21.9401473,43.3203823],[21.9404409,43.3202214],[21.9406087,43.3201397],[21.9408297,43.3200472],[21.9410056,43.3199825],[21.9412606,43.3199051],[21.9414568,43.319857],[21.9416018,43.319828],[21.941725,43.319815],[21.9420606,43.3197782],[21.9423352,43.3197606],[21.9431563,43.3197094],[21.9443615,43.3196683],[21.9445851,43.3196611],[21.9448883,43.3196401],[21.9452447,43.3196121],[21.9456086,43.3195847],[21.945893,43.319567],[21.9460171,43.3195605],[21.9462352,43.3195478],[21.946491,43.3195303],[21.9467434,43.3195206],[21.9470114,43.3195201],[21.9471877,43.3195324],[21.947364,43.3195421],[21.9475185,43.3195569],[21.9478034,43.3195918],[21.9479619,43.3196144],[21.9481467,43.3196465],[21.9483026,43.3196838],[21.9484204,43.3197228],[21.9484797,43.3197723],[21.9485269,43.3197979],[21.9485873,43.3198206],[21.9486455,43.3198304],[21.9486961,43.3198358],[21.948736,43.3198312],[21.9487965,43.3198224],[21.9488491,43.3198271],[21.9489631,43.3198551],[21.9490799,43.3198822],[21.9491911,43.3199082],[21.9493252,43.3199454],[21.949501,43.3199935],[21.9496629,43.3200394],[21.9499806,43.3201279],[21.9501614,43.3201803],[21.9504828,43.320245],[21.9505991,43.3202652],[21.9507645,43.3202927],[21.9508838,43.3203062],[21.9510422,43.3203217],[21.9512324,43.3203286],[21.9515879,43.3203183],[21.9517429,43.3203096],[21.9519351,43.3202923],[21.9520891,43.3202688],[21.9522383,43.3202441],[21.9524002,43.3202084],[21.9526039,43.3201603],[21.9527411,43.3201254],[21.9529001,43.3200853],[21.9531003,43.3200286],[21.9535381,43.3199068],[21.9537174,43.3198606],[21.9542069,43.3197287],[21.9545924,43.3196243],[21.9548838,43.3195367],[21.9551848,43.3194564],[21.9554808,43.3193748],[21.9557347,43.3193108],[21.9559488,43.3192526],[21.9561768,43.319189],[21.956374,43.3191323],[21.9566748,43.3190484],[21.9568357,43.3190029],[21.9571184,43.318927],[21.9573489,43.318867],[21.9575833,43.318802],[21.957801,43.3187389],[21.9580026,43.3186883],[21.9581814,43.3186414],[21.9583831,43.3185843],[21.9585271,43.3185431],[21.958702,43.3184913],[21.9588138,43.3184577],[21.9590222,43.3183898],[21.9591832,43.3183359],[21.9593073,43.3182843],[21.9594,43.3182472],[21.9595619,43.3181818],[21.9596965,43.3181244],[21.9598714,43.3180369],[21.9600125,43.3179662],[21.9601083,43.3179015],[21.960271,43.3178096],[21.9604121,43.3177391],[21.9605497,43.3176581],[21.9606739,43.317585],[21.9607817,43.317524],[21.960929,43.3174409],[21.9610242,43.3173902],[21.9611782,43.3173241],[21.9613103,43.3172663],[21.9614379,43.3172081],[21.9616164,43.3171489],[21.9618295,43.3170947],[21.9620433,43.3170323],[21.9621843,43.3169799],[21.9622618,43.3169521],[21.9623493,43.3169127],[21.9624731,43.316855],[21.962652,43.3167733],[21.9627657,43.3167202],[21.9631061,43.3165678],[21.9631484,43.3165483],[21.9634284,43.3164084],[21.9635203,43.3163705],[21.9636301,43.3163159],[21.9639004,43.3162112],[21.9641054,43.3161328],[21.9643739,43.3160302],[21.9646946,43.3159077],[21.9649413,43.31582],[21.9651399,43.3157402],[21.9654907,43.3156102],[21.9658904,43.3154649],[21.9662604,43.3153171],[21.9665308,43.3152333],[21.9667266,43.3151564],[21.9670256,43.3150343],[21.9672114,43.3149526],[21.967457,43.3148346],[21.9675966,43.3147565],[21.9677907,43.3146139],[21.968044,43.3144252],[21.9682238,43.3142763],[21.9684524,43.3141012],[21.9686131,43.3139815],[21.9687751,43.3138709],[21.9689032,43.3137958],[21.9690264,43.3137242],[21.9691794,43.3136469],[21.9693194,43.3135766],[21.9695051,43.3135],[21.9696949,43.3134371],[21.9698906,43.3133793],[21.9700664,43.3133323],[21.9702255,43.3132915],[21.9703586,43.3132634],[21.9705106,43.3132344],[21.9706795,43.3132048],[21.9709119,43.3131679],[21.9711136,43.3131398],[21.9713759,43.3131024],[21.9715845,43.3130699],[21.9718766,43.3130215],[21.9720862,43.3129853],[21.9723296,43.3129485],[21.9725896,43.3129043],[21.9727127,43.3128795],[21.9730028,43.3128383],[21.973279,43.3127986],[21.9736552,43.3127445],[21.9739293,43.3127069],[21.9740881,43.3126842],[21.9742194,43.312665],[21.9743843,43.3126419],[21.9746207,43.3126144],[21.9750433,43.3125851],[21.9755058,43.3125666],[21.9758386,43.3125615],[21.9762242,43.3125505],[21.9766385,43.3125895],[21.9772302,43.3126682],[21.9777259,43.3127475],[21.9783086,43.3128528],[21.979009,43.3129941],[21.9794355,43.3130366],[21.979876,43.3130328],[21.9800995,43.3130031],[21.9804542,43.3129311],[21.98078,43.3128307],[21.9809761,43.3127575],[21.981076,43.3127085],[21.9812866,43.3125748],[21.9814296,43.3124541],[21.981658,43.3121677],[21.9817977,43.3119752],[21.981963,43.311722],[21.9821082,43.3115186],[21.9822645,43.3113051],[21.9823758,43.3111558],[21.9825109,43.3109837],[21.9826533,43.3107918],[21.9827825,43.310606],[21.9829165,43.3104172],[21.9830178,43.3102661],[21.9830973,43.3101487],[21.9831619,43.3100475],[21.9832255,43.3099442],[21.9832851,43.3098458],[21.9833426,43.3097379],[21.9834092,43.3096172],[21.9834499,43.3095319],[21.9834876,43.3094518],[21.9835412,43.3093448],[21.9835996,43.309226],[21.9836373,43.3091538],[21.983708,43.3090302],[21.9837734,43.3089253],[21.9838111,43.3088678],[21.9839133,43.3087021],[21.9840256,43.3085445],[21.984116,43.3084079],[21.9841891,43.3082599],[21.9842527,43.3081746],[21.9843058,43.3080192],[21.984307,43.3078376],[21.9842921,43.3077096],[21.9842387,43.3075337],[21.9841982,43.3073995],[21.9841366,43.3072289],[21.9841225,43.3071846],[21.9841573,43.3071456],[21.9842129,43.3071254],[21.9843858,43.3070993],[21.9845835,43.3070943],[21.9847086,43.3071022],[21.9847613,43.307116],[21.9847961,43.307108],[21.9848149,43.3070083],[21.9848288,43.3069497],[21.9848507,43.3068911],[21.9849063,43.3068926],[21.9849629,43.3069475],[21.9850295,43.3070495],[21.9850803,43.3071359],[21.9851379,43.3072097],[21.9852015,43.3072856],[21.9852442,43.3073499],[21.9853098,43.3074041],[21.9853843,43.3074374],[21.9854717,43.3074489],[21.9855373,43.3074395],[21.9856138,43.3074077],[21.9856749,43.3074315],[21.9857623,43.3074178],[21.9859232,43.3073462],[21.9860404,43.3072985],[21.9861676,43.3072327],[21.9864041,43.3071373],[21.9866643,43.3070274],[21.9869822,43.3069291],[21.9871948,43.3068641],[21.98762,43.3067426],[21.9879339,43.3066761],[21.9882498,43.3066197],[21.9885252,43.3065824],[21.9887279,43.3065564],[21.9889673,43.3065296],[21.9891839,43.3065195],[21.9893657,43.3065101],[21.9895236,43.3064971],[21.9897538,43.3064751],[21.9899336,43.3064541],[21.9901223,43.3064288],[21.9903588,43.3063905],[21.9905614,43.3063587],[21.990807,43.3063092],[21.9909908,43.3062644],[21.9911895,43.3062109],[21.9913931,43.3061487],[21.9916186,43.3060866],[21.9917786,43.306036],[21.9920005,43.3059549],[21.9921624,43.3058884],[21.992363,43.3058017],[21.9925061,43.3057352],[21.992669,43.3056672],[21.9927825,43.3056183],[21.9928828,43.3055699],[21.9930189,43.3055106],[21.9931838,43.3054369],[21.9933299,43.3053768],[21.9934789,43.305314],[21.9935911,43.3052742],[21.9937034,43.305233],[21.9938266,43.3051918],[21.9939408,43.3051542],[21.9940839,43.3051086],[21.9942732,43.3050529],[21.994445,43.3050132],[21.9947003,43.3049554],[21.9949318,43.3049033],[21.9951355,43.3048693],[21.995359,43.3048339],[21.995736,43.3047895],[21.9960201,43.3047628],[21.9963022,43.3047519],[21.9966241,43.304744],[21.996785,43.3047462],[21.9972541,43.3047753],[21.9976962,43.3048208],[21.9979813,43.3048591],[21.9982237,43.3048924],[21.9984551,43.3049314],[21.9986673,43.3049709],[21.9988332,43.3050107],[21.9990339,43.3050627],[21.9992216,43.305122],[21.9994531,43.3052088],[21.9996406,43.3052778],[21.9999238,43.3053898],[22.0002009,43.3054997],[22.0005707,43.3056417],[22.0011093,43.3058374],[22.001272,43.305783],[22.0013717,43.3056632],[22.0014349,43.3055971],[22.0015769,43.3056115],[22.0018034,43.305663],[22.0020518,43.3057237],[22.0022259,43.3057539],[22.0024511,43.3057844],[22.0027094,43.3058437],[22.0028981,43.3058923],[22.0032399,43.3059189],[22.0035061,43.305968],[22.003639,43.3059611],[22.0038526,43.3058772],[22.0040701,43.3057833],[22.0041953,43.3057131],[22.0043297,43.3056353],[22.0045572,43.3055052],[22.0047026,43.3053997],[22.0048437,43.3053101],[22.0049626,43.3052317],[22.0051037,43.3050886],[22.0052259,43.3049426],[22.0056565,43.3045276],[22.0058969,43.3043021],[22.0061828,43.3040616],[22.006314,43.3039409],[22.0064928,43.303802],[22.0066905,43.303664],[22.0069579,43.3034773],[22.0073336,43.3032785],[22.0076338,43.3031341],[22.0080023,43.3029751],[22.0084078,43.3028288],[22.0086982,43.3027122],[22.0089661,43.3026443],[22.0092005,43.3025966],[22.0094469,43.3025546],[22.0097598,43.3025098],[22.0103899,43.3024249],[22.0109641,43.3024292],[22.0114751,43.3024169],[22.011796,43.3024198],[22.0120662,43.3024393],[22.0125055,43.3024623],[22.0127568,43.3024745],[22.0133922,43.3025061],[22.0137767,43.3025213],[22.0141512,43.302527],[22.0144552,43.3025328],[22.0148348,43.3025355],[22.0150901,43.3025651],[22.0152232,43.3025687],[22.0153695,43.3025234],[22.0155969,43.3025444],[22.0158115,43.3025906],[22.0160132,43.3026311],[22.0162069,43.3026767],[22.016335,43.3026875],[22.0164801,43.3026839],[22.01665,43.3027027],[22.0169464,43.3027529],[22.0171819,43.3028006],[22.0174143,43.302818],[22.0175355,43.302784],[22.0175723,43.3026821],[22.0176081,43.3025642],[22.0176278,43.3024913],[22.0176596,43.3023836],[22.0177073,43.3022151],[22.0177871,43.3019113],[22.0178398,43.3017378]]},"properties":{"tip":"pesacki_gornji","label":"Pešačka staza — gornji bedem","uloga":"krak","duzina_m":7689.1,"km_od":6.51,"km_do":14.03,"deonica":"Niška Banja"}},{"type":"Feature","geometry":{"type":"LineString","coordinates":[[21.9158802,43.3261428],[21.9159574,43.3261257],[21.9161351,43.3260799],[21.9161988,43.3260608],[21.9163208,43.3260194],[21.9164676,43.3259677],[21.9166132,43.3259125],[21.9169223,43.325793],[21.9172384,43.3256643],[21.917565,43.3255301],[21.9178272,43.3254272],[21.9180927,43.3253409],[21.9183395,43.3252633],[21.9186124,43.3251857],[21.9186948,43.3251652],[21.9188296,43.3251364],[21.9189516,43.3251091],[21.9191481,43.325075],[21.9193332,43.3250447],[21.9195772,43.3250179],[21.9198046,43.324994],[21.9201492,43.3249603],[21.9205757,43.3249223],[21.9208768,43.3248881],[21.9210659,43.3248564],[21.9211604,43.3248398],[21.9212395,43.3248164],[21.9213341,43.3247842],[21.9213904,43.3247437],[21.9214604,43.3246976],[21.9215027,43.3246659],[21.9215442,43.3246172],[21.9216106,43.3245176],[21.9217581,43.324304],[21.9218627,43.3241391],[21.9219834,43.3239576],[21.9220995,43.3237713],[21.9222047,43.3236132],[21.9223254,43.3234313],[21.9224233,43.3232903],[21.9225185,43.3231498],[21.9226118,43.3230074],[21.9227439,43.322802],[21.9228304,43.3226732],[21.9229443,43.322501],[21.9231254,43.3222371],[21.923232,43.3220644],[21.9233313,43.321921],[21.9234281,43.3217539],[21.9234545,43.3217206],[21.9236208,43.3214899],[21.923822,43.3212098],[21.9239688,43.3209893],[21.9240654,43.3208552],[21.9242082,43.3206322],[21.9243537,43.3204186],[21.9245361,43.3201429],[21.9246393,43.3199502],[21.9247304,43.3197866],[21.9248294,43.3196082],[21.9248757,43.3195092],[21.9249715,43.3193194],[21.9250406,43.319175],[21.9251211,43.3189838],[21.9251702,43.3188684],[21.9252096,43.3187801],[21.9252318,43.3187035],[21.9252405,43.3186074],[21.9252797,43.318476],[21.925332,43.3183326],[21.9254393,43.3180428],[21.9255077,43.317815],[21.925572,43.3176179],[21.9255917,43.3174729],[21.9256312,43.3172895],[21.9256419,43.317126],[21.9256525,43.31697],[21.9256693,43.3167563],[21.9256573,43.3166228],[21.9256453,43.3166009],[21.9256171,43.3165735]]},"properties":{"tip":"pesacki_gornji","label":"Pešačka staza — gornji bedem","uloga":"krak","duzina_m":1461.2,"km_od":4.55,"km_do":5.05,"deonica":"Gabrovačka Reka"}},{"type":"Feature","geometry":{"type":"LineString","coordinates":[[21.8728788,43.3240252],[21.8728879,43.3240294],[21.873317,43.3241153],[21.8738655,43.3242226],[21.8746561,43.3243843],[21.8751969,43.3245029],[21.8756214,43.3245947],[21.8759722,43.3246723],[21.8761405,43.3247098],[21.8762994,43.3247396],[21.8767192,43.3247879],[21.8770404,43.3248274],[21.8773227,43.3248464],[21.8777806,43.3248747],[21.8782346,43.3248978],[21.8786161,43.3249168],[21.8794288,43.3249522],[21.8799767,43.3249751],[21.8804749,43.3249946],[21.8808709,43.3250127],[21.8810453,43.3250146],[21.8812451,43.3250151],[21.8814543,43.3250068],[21.8815789,43.3249976],[21.8817304,43.3249859],[21.8817914,43.3249733],[21.881731,43.3249395],[21.8818534,43.3249099],[21.8819942,43.3248601],[21.8821652,43.3247953],[21.8823034,43.3247533],[21.8824301,43.3247304],[21.8825293,43.3247084],[21.8826943,43.3246353],[21.8827975,43.3245743],[21.8829048,43.3245284],[21.8831281,43.3244075],[21.8832823,43.3242514],[21.8836035,43.3239557],[21.8837441,43.3238006],[21.883901,43.3236387],[21.8841569,43.3234058],[21.8842951,43.3232545],[21.8844021,43.3230995],[21.8845272,43.3229391],[21.8846294,43.3228047],[21.8847024,43.3227169],[21.8848156,43.322572],[21.8850178,43.3223234],[21.8850256,43.3223113],[21.8849953,43.3222933],[21.8849328,43.3222604],[21.8849035,43.322242],[21.8849263,43.3222268],[21.884979,43.3222051],[21.8849941,43.322204],[21.8853401,43.322005],[21.8857371,43.3217699],[21.8861501,43.321524],[21.8864103,43.3213903],[21.8865707,43.3213171],[21.8867155,43.3212727],[21.8868302,43.321221],[21.8869422,43.3212015],[21.8869991,43.3212254],[21.8870112,43.3212488],[21.8872754,43.3218005]]},"properties":{"tip":"pesacki_gornji","label":"Pešačka staza — gornji bedem","uloga":"krak","duzina_m":1437.2,"km_od":0.5,"km_do":1.85,"deonica":"Medoševac"}},{"type":"Feature","geometry":{"type":"LineString","coordinates":[[21.9258994,43.3246489],[21.925953,43.3246802],[21.9259778,43.3247021],[21.9259939,43.3247314],[21.9260013,43.3247567],[21.9260663,43.3247792],[21.9261367,43.3248026],[21.9262031,43.3248177],[21.9262527,43.324828],[21.9264781,43.3248768],[21.9268234,43.3249646],[21.9270279,43.3250177],[21.9271701,43.3250499],[21.9273095,43.3250816],[21.9275342,43.3251372],[21.9277394,43.3251841],[21.9280968,43.3252768],[21.9282785,43.3253182],[21.9284622,43.3253611],[21.9286057,43.3253855],[21.9287137,43.3254085],[21.9288538,43.3254285],[21.9290067,43.3254485],[21.9293339,43.3254733],[21.9294741,43.3254768],[21.9296001,43.3254792],[21.9297322,43.3254821],[21.9298798,43.3254797],[21.9301795,43.3254772],[21.930498,43.3254543],[21.9307097,43.3254331],[21.9308365,43.3254121],[21.9309726,43.3253916],[21.931211,43.325348],[21.9313947,43.3253075],[21.9316379,43.3252421],[21.9319203,43.3251612],[21.9320423,43.3251241],[21.9322558,43.3250433],[21.9324442,43.3249697],[21.9326125,43.3248921],[21.9327783,43.3248146],[21.9329487,43.3247326],[21.9330687,43.3246683],[21.9332055,43.3245897],[21.9333712,43.3244823],[21.9336032,43.3243331],[21.9338499,43.324174],[21.9340732,43.3240233],[21.9342663,43.3238994],[21.9344816,43.3237555],[21.9345976,43.3236809],[21.9347713,43.3235618],[21.935014,43.3234072],[21.93512,43.323335],[21.935242,43.3232618],[21.9354016,43.3231545],[21.9356564,43.3229916],[21.9358481,43.3228533],[21.9359561,43.3227899],[21.9361063,43.3226938],[21.9363094,43.3225563],[21.9366958,43.3223249],[21.9368547,43.3222192],[21.936897,43.3221587],[21.9369325,43.3220933],[21.9369533,43.3220436],[21.9369795,43.3220011],[21.9370089,43.3219597],[21.9370177,43.3219489]]},"properties":{"tip":"pesacki_gornji","label":"Pešačka staza — gornji bedem","uloga":"krak","duzina_m":1062.3,"km_od":5.4,"km_do":6.46,"deonica":"Delta - Lidl"}},{"type":"Feature","geometry":{"type":"LineString","coordinates":[[21.8953904,43.3224449],[21.8953928,43.3224048],[21.8954585,43.3224106],[21.8956382,43.3224145],[21.895834,43.3224175],[21.8959319,43.3224302],[21.8960137,43.3224594],[21.8960727,43.3225082],[21.8961009,43.3225658],[21.8961022,43.3225843],[21.8963503,43.3226536],[21.8965085,43.3226994],[21.8966534,43.3227521],[21.8967929,43.3228087],[21.897108,43.3229521],[21.8972824,43.3230565],[21.8974809,43.323199],[21.8975104,43.3232253],[21.897619,43.3232073],[21.8977336,43.3232209],[21.8978181,43.3232487],[21.8978624,43.3232946],[21.8979281,43.3233717],[21.8979355,43.3234473],[21.8979408,43.3235092],[21.8979509,43.3235844],[21.8980374,43.3236761],[21.8981259,43.3237707],[21.8982265,43.3238624],[21.8983177,43.3239356],[21.8983968,43.3240088],[21.8984934,43.3240888],[21.8986811,43.3242488],[21.898885,43.3244253],[21.8990687,43.3245697],[21.8991304,43.3246175],[21.8992575,43.3247019],[21.8993232,43.3247414],[21.8995351,43.324857],[21.8996397,43.3249111],[21.8997182,43.3249516],[21.8998709,43.3250181],[21.9000051,43.3250708],[21.9001197,43.3251147],[21.900155,43.3251412],[21.9001818,43.3251891],[21.9002428,43.3253056],[21.9006284,43.3254861],[21.9008349,43.3255817],[21.9011937,43.3257364],[21.901436,43.3258443],[21.9015795,43.3259087],[21.9017223,43.3259692],[21.9018281,43.3260087],[21.9019529,43.3260516],[21.9020809,43.3260916],[21.9022466,43.3261385],[21.9024533,43.3261909],[21.9025103,43.3261841],[21.9026605,43.3261982],[21.9028033,43.3262275],[21.9028295,43.3262299],[21.9028054,43.3268963],[21.9028302,43.3262299],[21.9028369,43.3258391]]},"properties":{"tip":"pesacki_gornji","label":"Pešačka staza — gornji bedem","uloga":"krak","duzina_m":972.0,"km_od":2.57,"km_do":3.38,"deonica":"Centar"}},{"type":"Feature","geometry":{"type":"LineString","coordinates":[[21.9090121,43.3263631],[21.909051,43.3258362],[21.9090302,43.3261001],[21.9090772,43.3260718],[21.9091811,43.3260718],[21.9092777,43.3260733],[21.9093689,43.3260801],[21.9094299,43.3260884],[21.9096686,43.3260645],[21.91002,43.3260294],[21.9101769,43.3260162],[21.9104116,43.3259997],[21.9106496,43.3259928],[21.9108226,43.3259948],[21.9111036,43.3259923],[21.9114288,43.3260045],[21.9116494,43.3260192],[21.9117542,43.3260275],[21.911659,43.3259265],[21.9117971,43.3259401],[21.9120512,43.3259831],[21.9124502,43.3260397],[21.9126762,43.3260728],[21.9128921,43.3261006],[21.9131986,43.3261372],[21.9135653,43.3261792],[21.9138896,43.3262102],[21.9141458,43.3262336],[21.9142812,43.3262492],[21.9144053,43.3262511],[21.9145857,43.3262443],[21.914752,43.326238],[21.9148532,43.3262316],[21.9150007,43.3262214],[21.9151436,43.3262072],[21.9152877,43.3261955],[21.915385,43.3261828],[21.915497,43.3261506],[21.9158294,43.3260661],[21.9155266,43.3257324],[21.9153283,43.3255061],[21.9155266,43.3257324],[21.9158294,43.3260661],[21.9159132,43.3262236],[21.9160138,43.3264568],[21.9162123,43.3269227],[21.916217,43.3269456],[21.916219,43.3270324],[21.9161962,43.3272031]]},"properties":{"tip":"pesacki_gornji","label":"Pešačka staza — gornji bedem","uloga":"krak","duzina_m":947.4,"km_od":3.9,"km_do":4.55,"deonica":"Delta - Lidl"}},{"type":"Feature","geometry":{"type":"LineString","coordinates":[[21.8869422,43.3212015],[21.8870484,43.3211757],[21.8871476,43.3211337],[21.8872361,43.3210879],[21.8873045,43.3210381],[21.8875218,43.321003],[21.8878691,43.3209571],[21.8882312,43.3209123],[21.8884847,43.3208879],[21.8886054,43.3208825],[21.8887757,43.3208698],[21.8889474,43.3208654],[21.8890795,43.3208664],[21.8893269,43.3208718],[21.8896106,43.320881],[21.8900511,43.3208996],[21.8904347,43.3209454],[21.8906291,43.3209722],[21.8906867,43.320977],[21.8906706,43.3210629],[21.8909268,43.3211161],[21.8913034,43.3212197],[21.8918653,43.3213973],[21.8924272,43.3215943],[21.8927571,43.3217114],[21.8932346,43.3218607],[21.8937227,43.3220227],[21.8939842,43.3221173],[21.8945274,43.3222958],[21.8948036,43.322369],[21.8950263,43.3224188],[21.8951235,43.3224417],[21.8952449,43.322471],[21.8952683,43.3224734],[21.8952784,43.3224578],[21.8952831,43.3224354],[21.8953904,43.3224449],[21.895385,43.3224986],[21.8952945,43.3230996]]},"properties":{"tip":"pesacki_gornji","label":"Pešačka staza — gornji bedem","uloga":"krak","duzina_m":811.3,"km_od":1.84,"km_do":2.57,"deonica":"Medoševac"}},{"type":"Feature","geometry":{"type":"LineString","coordinates":[[21.8676261,43.3218925],[21.8680848,43.3219179],[21.8689914,43.3223726],[21.8694126,43.3225874],[21.8698874,43.3228352],[21.8703246,43.3230733],[21.8706022,43.3232138],[21.870916,43.3233718],[21.8712305,43.3235201],[21.8713579,43.3235753],[21.8716509,43.3236914],[21.8719426,43.3237923],[21.8722945,43.3238955],[21.8726629,43.3239862],[21.8728788,43.3240252],[21.8731498,43.3240118],[21.8732383,43.3239991],[21.8732947,43.3239591],[21.8732705,43.3238127],[21.8732236,43.3235317],[21.8732155,43.3232195],[21.8730921,43.3229346],[21.8729983,43.3227317],[21.8730439,43.3226693]]},"properties":{"tip":"pesacki_gornji","label":"Pešačka staza — gornji bedem","uloga":"krak","duzina_m":676.3,"km_od":0.0,"km_do":0.53,"deonica":"Medoševac"}},{"type":"Feature","geometry":{"type":"LineString","coordinates":[[21.9024533,43.3261909],[21.9024993,43.3260661],[21.9025757,43.326029],[21.9026776,43.3259978],[21.90286,43.3260134],[21.9030759,43.3260378],[21.9031457,43.3260778],[21.9032342,43.326152],[21.9032811,43.3262193],[21.9033884,43.326271],[21.9034461,43.3262847],[21.9035327,43.3262936],[21.9037849,43.3263629],[21.9039807,43.3263805],[21.904332,43.3264039],[21.9044782,43.3263629],[21.9047572,43.3263414],[21.9049476,43.3263473],[21.9052641,43.3263668],[21.9055404,43.3263805],[21.9059239,43.326398],[21.9061734,43.3264039],[21.9065086,43.3264039],[21.9067393,43.3263931],[21.907037,43.3263668],[21.9073696,43.3263385],[21.9076432,43.3263083],[21.9079101,43.3262751],[21.9081139,43.3262429],[21.908299,43.3262185],[21.9083735,43.3261873],[21.9084499,43.3261683],[21.9085733,43.3261473],[21.908706,43.326119],[21.908759,43.3261073],[21.9087469,43.3263887],[21.9087577,43.3261053],[21.9087671,43.3258658]]},"properties":{"tip":"pesacki_gornji","label":"Pešačka staza — gornji bedem","uloga":"krak","duzina_m":631.0,"km_od":3.34,"km_do":3.97,"deonica":"Centar"}},{"type":"Feature","geometry":{"type":"LineString","coordinates":[[21.925668,43.3167729],[21.9257247,43.3166789],[21.9257465,43.316564],[21.9258084,43.3159558],[21.9258177,43.3156539],[21.9258177,43.3155578],[21.9258108,43.315414],[21.9258018,43.3152817],[21.9257835,43.3151],[21.925762,43.3149601],[21.9257546,43.3148837],[21.9257461,43.3147576],[21.9257418,43.3146237],[21.9257169,43.3144929],[21.925672,43.3142411],[21.9256487,43.3141388],[21.9256257,43.3140422],[21.9256107,43.3139546],[21.9256009,43.3138953],[21.9255739,43.3137764],[21.9255243,43.3136392],[21.9254686,43.3134512],[21.9253603,43.3131141],[21.925262,43.3128782],[21.925117,43.312503],[21.9250447,43.3123732],[21.92498,43.3122389],[21.925199,43.3121707],[21.9249789,43.3122391],[21.9245288,43.3123858]]},"properties":{"tip":"pesacki_gornji","label":"Pešačka staza — gornji bedem","uloga":"krak","duzina_m":592.0,"km_od":null,"km_do":null,"deonica":"Gabrovačka Reka"}},{"type":"Feature","geometry":{"type":"LineString","coordinates":[[21.9218484,43.3246965],[21.9218973,43.324719],[21.9219242,43.3247351],[21.9219912,43.3247511],[21.9220609,43.3247585],[21.922134,43.324756],[21.9223057,43.3247448],[21.9224479,43.3247351],[21.9226671,43.3247155],[21.9229595,43.3246868],[21.923329,43.3246555],[21.923565,43.3246355],[21.9237863,43.3246224],[21.9239839,43.3246128],[21.9241113,43.3246109],[21.9243305,43.3246099],[21.9244821,43.3246133],[21.9246598,43.3246177],[21.9248992,43.3246324],[21.9250393,43.3246402],[21.9251794,43.3246514],[21.9253283,43.3246577],[21.9254685,43.324667],[21.9255128,43.32467],[21.9255437,43.3246661],[21.9256067,43.324633],[21.9256396,43.3246018],[21.9256791,43.3245666],[21.925718,43.3245393],[21.9257475,43.3245066],[21.9257455,43.3245422],[21.9257073,43.3246154]]},"properties":{"tip":"pesacki_gornji","label":"Pešačka staza — gornji bedem","uloga":"krak","duzina_m":338.9,"km_od":5.06,"km_do":5.38,"deonica":"Delta - Lidl"}},{"type":"Feature","geometry":{"type":"LineString","coordinates":[[22.0086727,43.3027219],[22.0086936,43.3026527],[22.0087681,43.3025725],[22.0089141,43.3024857],[22.0091178,43.3024315],[22.009232,43.3024199],[22.0094019,43.3023498],[22.0094486,43.3022659],[22.0094605,43.3021286],[22.0094803,43.3017375],[22.0095379,43.3012257]]},"properties":{"tip":"pesacki_gornji","label":"Pešačka staza — gornji bedem","uloga":"krak","duzina_m":202.6,"km_od":13.19,"km_do":13.26,"deonica":"Niška Banja"}},{"type":"Feature","geometry":{"type":"LineString","coordinates":[[21.9295722,43.3254784],[21.9295871,43.32543],[21.9295851,43.3253938],[21.9295816,43.325336],[21.9295695,43.3252526],[21.9295457,43.3251367],[21.9295324,43.3250204],[21.9295324,43.3249597],[21.9295396,43.3247529],[21.9295257,43.3246082],[21.9295004,43.3244658],[21.9294621,43.324356],[21.9294193,43.3241862]]},"properties":{"tip":"pesacki_gornji","label":"Pešačka staza — gornji bedem","uloga":"krak","duzina_m":144.9,"km_od":5.71,"km_do":5.71,"deonica":null}},{"type":"Feature","geometry":{"type":"LineString","coordinates":[[21.9047572,43.3263414],[21.9046916,43.3262251],[21.9047055,43.3261326],[21.9046896,43.3260372],[21.9047333,43.3259475],[21.9048307,43.325842],[21.9050313,43.3256325],[21.90523,43.3254229],[21.9053572,43.3252278]]},"properties":{"tip":"pesacki_gornji","label":"Pešačka staza — gornji bedem","uloga":"krak","duzina_m":140.4,"km_od":3.54,"km_do":3.55,"deonica":null}},{"type":"Feature","geometry":{"type":"LineString","coordinates":[[21.9775403,43.3127148],[21.9777996,43.3126368],[21.978179,43.3125269],[21.9786608,43.3123937]]},"properties":{"tip":"pesacki_gornji","label":"Pešačka staza — gornji bedem","uloga":"krak","duzina_m":97.4,"km_od":10.08,"km_do":10.13,"deonica":"Niška Banja"}},{"type":"Feature","geometry":{"type":"LineString","coordinates":[[21.8849035,43.322242],[21.8844382,43.3219568],[21.8840569,43.3217203]]},"properties":{"tip":"pesacki_gornji","label":"Pešačka staza — gornji bedem","uloga":"krak","duzina_m":89.8,"km_od":1.65,"km_do":1.65,"deonica":null}},{"type":"Feature","geometry":{"type":"LineString","coordinates":[[21.9838275,43.3088335],[21.9837361,43.3087613],[21.9835971,43.3086788],[21.9834222,43.3085776],[21.9832355,43.3084938],[21.9831727,43.3084675]]},"properties":{"tip":"pesacki_gornji","label":"Pešačka staza — gornji bedem","uloga":"krak","duzina_m":67.1,"km_od":10.87,"km_do":10.88,"deonica":"Niška Banja"}},{"type":"Feature","geometry":{"type":"LineString","coordinates":[[21.8906165,43.3212491],[21.8906512,43.3211534],[21.8906736,43.3210822],[21.8906706,43.3210629],[21.8906867,43.320977],[21.8906879,43.320943],[21.8907858,43.3206651]]},"properties":{"tip":"pesacki_gornji","label":"Pešačka staza — gornji bedem","uloga":"krak","duzina_m":66.6,"km_od":2.15,"km_do":2.15,"deonica":"Medoševac"}},{"type":"Feature","geometry":{"type":"LineString","coordinates":[[21.8760342,43.3246855],[21.8760833,43.3246537],[21.8762274,43.3246472],[21.8765184,43.3243285]]},"properties":{"tip":"pesacki_gornji","label":"Pešačka staza — gornji bedem","uloga":"krak","duzina_m":59.5,"km_od":0.76,"km_do":0.78,"deonica":"Medoševac"}},{"type":"Feature","geometry":{"type":"LineString","coordinates":[[21.8907879,43.3213261],[21.8908231,43.3212275],[21.8908519,43.3211469],[21.8908748,43.3211031],[21.8908987,43.3210739],[21.8909335,43.3209948],[21.8909951,43.3208289]]},"properties":{"tip":"pesacki_gornji","label":"Pešačka staza — gornji bedem","uloga":"krak","duzina_m":57.9,"km_od":2.16,"km_do":2.17,"deonica":"Centar"}},{"type":"Feature","geometry":{"type":"LineString","coordinates":[[21.8952683,43.3224734],[21.8952619,43.3224884],[21.8951964,43.3224888],[21.8951025,43.322475],[21.8950484,43.3224685],[21.8950101,43.3224631],[21.8949897,43.32247],[21.8949808,43.3224873]]},"properties":{"tip":"pesacki_gornji","label":"Pešačka staza — gornji bedem","uloga":"krak","duzina_m":26.3,"km_od":2.54,"km_do":2.56,"deonica":"Centar"}},{"type":"Feature","geometry":{"type":"LineString","coordinates":[[21.8959885,43.3224544],[21.8959548,43.3226155],[21.8959498,43.3226336]]},"properties":{"tip":"pesacki_gornji","label":"Pešačka staza — gornji bedem","uloga":"krak","duzina_m":20.2,"km_od":2.62,"km_do":2.62,"deonica":"Centar"}},{"type":"Feature","geometry":{"type":"LineString","coordinates":[[21.9485756,43.3199395],[21.9486096,43.3199574],[21.9487698,43.3199615],[21.9488532,43.3199803],[21.9490459,43.3200655],[21.9494215,43.3201711],[21.94964,43.3202361],[21.9499629,43.3202568],[21.9502569,43.3203001],[21.9505808,43.3203637],[21.9509245,43.3204057],[21.9511947,43.3204244],[21.9515637,43.3204035],[21.9516084,43.3204144],[21.951664,43.3204541],[21.9517187,43.3204964],[21.9517873,43.3204985],[21.9519403,43.3204869],[21.9521717,43.3204652],[21.9524866,43.3204212],[21.9526625,43.3203778],[21.9528671,43.3202752],[21.952995,43.3201974],[21.9533129,43.3201497],[21.9535243,43.3201085],[21.9536724,43.3200738],[21.953882,43.3200182],[21.9540667,43.3199893],[21.9542654,43.3199163],[21.9544691,43.3198368],[21.9547254,43.319758],[21.9549554,43.3196854],[21.9553468,43.3195626],[21.955613,43.3194729],[21.9558395,43.3194238],[21.9561435,43.3193443],[21.9565806,43.3192099],[21.9568846,43.3191072],[21.9571171,43.3190509],[21.9574877,43.3189811],[21.9578036,43.318919],[21.9580818,43.3188691],[21.9582755,43.3188091],[21.9583986,43.3187609],[21.9584463,43.3187371],[21.9585372,43.3186586],[21.958638,43.3185596],[21.9587359,43.3185123],[21.9587951,43.3185193],[21.9588765,43.3185944],[21.9589699,43.3186783],[21.9590732,43.318713],[21.9592938,43.3186508],[21.9596772,43.3185135],[21.9599335,43.3183617],[21.9603383,43.3182531],[21.9605608,43.3182545],[21.9607734,43.3182068],[21.9609125,43.3181475],[21.9610118,43.3180507],[21.9612661,43.3179061],[21.9614787,43.3177645],[21.9616893,43.3175939],[21.9619706,43.3174074],[21.9621633,43.3172686],[21.9623838,43.3171386],[21.9626302,43.3170272],[21.9628686,43.3169289],[21.9630554,43.3168292],[21.9631388,43.3167222],[21.9632521,43.3166774],[21.9634249,43.3166037],[21.9637865,43.3164187],[21.96414,43.3162731],[21.9648453,43.3160071],[21.9654731,43.3157643],[21.9660599,43.3156006],[21.9662507,43.3154691],[21.9663758,43.3154185],[21.9664295,43.3154777],[21.9666977,43.3153621],[21.9670513,43.3151652],[21.9672679,43.3150712],[21.9674606,43.3149823],[21.9676911,43.3148269],[21.9678296,43.3147304],[21.9679677,43.3146198],[21.9681624,43.3144615],[21.9683323,43.3143307],[21.9685022,43.3142143],[21.9687456,43.3140509],[21.968999,43.3139107],[21.9692612,43.3137863],[21.9696447,43.3136512],[21.9699158,43.3135861],[21.9703884,43.3134524],[21.9706933,43.3134011],[21.9710221,43.3133585],[21.9713209,43.3132884],[21.9715007,43.3132804],[21.9717451,43.31324],[21.9719835,43.3132103],[21.9722289,43.3131771],[21.9724542,43.3131177],[21.9725685,43.3130837],[21.9727791,43.3130534],[21.9729897,43.3130425],[21.9732917,43.3130006],[21.9736492,43.312947],[21.9737883,43.3129152],[21.9741111,43.3128928],[21.9744439,43.3128769],[21.9746398,43.3128793],[21.9749179,43.3128692],[21.9752356,43.3128263],[21.9754174,43.3127952],[21.9755813,43.3127143],[21.9758058,43.3126427],[21.9760303,43.3126022],[21.9763041,43.3125898],[21.9766896,43.3126332],[21.9772836,43.3127098],[21.9774426,43.3127705],[21.9775241,43.3128601],[21.9775737,43.3130206],[21.9776969,43.3130466],[21.9779231,43.3130627],[21.9783344,43.3131263],[21.9787258,43.3132072],[21.9790755,43.3132824],[21.9794093,43.3133359],[21.9796755,43.3133677],[21.9798841,43.3133691],[21.9800497,43.3133416],[21.9801769,43.3132961],[21.9803011,43.3132072],[21.9804779,43.3130734],[21.9808575,43.3128627],[21.9811734,43.3126994],[21.9814158,43.3125592],[21.981529,43.3124363],[21.9817515,43.3121738],[21.9818727,43.3120307],[21.9819824,43.31179],[21.9820936,43.3116628],[21.9822178,43.3114842],[21.982366,43.3113499],[21.9824812,43.3112141],[21.9826242,43.3109986],[21.9828081,43.3108123],[21.9828836,43.3107198],[21.9829571,43.3105796],[21.9830753,43.3104314],[21.9831697,43.3102955],[21.9832553,43.3101508],[21.9833924,43.309931],[21.9835104,43.3097277],[21.9836296,43.3095086],[21.9837081,43.3093344],[21.983826,43.3091478],[21.9839323,43.3089686],[21.9840605,43.3088327],[21.9841807,43.3086982],[21.9843326,43.3085193],[21.9844181,43.3084021],[21.984424,43.3082388],[21.9844975,43.3081621],[21.9846247,43.3080855],[21.9848234,43.3080002],[21.9850677,43.3078759],[21.9855009,43.3076703],[21.9858821,43.3075196],[21.9861459,43.3074019],[21.9864361,43.3072906],[21.9868656,43.3071407],[21.986963,43.3071234],[21.9872252,43.3070381],[21.9876226,43.3069369],[21.9882211,43.3068399],[21.9885013,43.3067662],[21.9887794,43.306704],[21.9891947,43.3066462],[21.9895821,43.3066057],[21.9900132,43.3065797],[21.9902485,43.3065581],[21.9905525,43.3065075],[21.9909041,43.3064655],[21.991223,43.3064058],[21.9913938,43.3063769],[21.9915746,43.3063046],[21.9917673,43.3062338],[21.9919779,43.306121],[21.9921896,43.3060398],[21.9923863,43.3059212],[21.9926307,43.3058287],[21.9929148,43.3057304],[21.9930778,43.3056364],[21.9934572,43.3054773],[21.9937354,43.3053617],[21.99394,43.3052793],[21.9942163,43.305184],[21.9944726,43.3051008],[21.9947647,43.3050582],[21.9950806,43.3050155],[21.9952561,43.3049638],[21.9955124,43.3049009],[21.9957547,43.3048698],[21.9961273,43.304838],[21.9962809,43.3048258],[21.9965025,43.3048041],[21.9966505,43.3047962],[21.9968343,43.3048027],[21.9970662,43.304826],[21.9972758,43.3048672],[21.9974903,43.3048884],[21.9976979,43.3048934],[21.9980118,43.3049787],[21.9983335,43.3050506],[21.9985778,43.3050947],[21.99886,43.3051178],[21.9990348,43.3051807],[21.9992544,43.3053188],[21.9994641,43.3053952],[21.9998296,43.3054863],[22.0002481,43.3055984],[22.0004626,43.305654],[22.000573,43.3056546],[22.0007786,43.3057283],[22.0009714,43.3057985],[22.0012125,43.3059185],[22.0014713,43.3061538],[22.0015235,43.3061967],[22.0017864,43.306308],[22.002052,43.3063841],[22.0022236,43.3064173],[22.002626,43.3064232],[22.0028915,43.3064251],[22.0031436,43.3064095],[22.003263,43.3063958],[22.0033126,43.3063821],[22.0036814,43.306268],[22.0039067,43.3061889],[22.0039751,43.3061557],[22.0042385,43.3060259],[22.0044987,43.3059088],[22.0046537,43.3058238],[22.0047441,43.3057429],[22.0048407,43.3056502],[22.0049117,43.3055643],[22.0049601,43.3054793],[22.0049388,43.3052907]]},"properties":{"tip":"pesacki_donji","label":"Pešačka staza — donji bedem","uloga":"krak","duzina_m":5398.6,"km_od":7.5,"km_do":12.77,"deonica":"Brzi Brod"}},{"type":"Feature","geometry":{"type":"LineString","coordinates":[[21.89103,43.3211462],[21.8912352,43.3212375],[21.891256,43.3212731],[21.8914075,43.3213185],[21.891703,43.3214157],[21.8918264,43.3214577],[21.8922032,43.3215918],[21.8926903,43.3217553],[21.8931161,43.3218968],[21.8935868,43.3220539],[21.8938812,43.3221553],[21.8941574,43.3222456],[21.8943392,43.3223051],[21.8944585,43.322349],[21.8945604,43.3223827],[21.8946443,43.322408],[21.894712,43.3224285],[21.8948039,43.3224519],[21.8948729,43.3224661],[21.8950157,43.3224944],[21.8951049,43.3225158],[21.8952323,43.3225358],[21.8956441,43.3225856],[21.8958036,43.3226027],[21.8959981,43.3226422],[21.8961114,43.3226724],[21.8962107,43.3226993],[21.8963683,43.3227422],[21.8965278,43.3227949],[21.8966599,43.3228471],[21.8967713,43.3228959],[21.8969087,43.3229612],[21.89701,43.3230115],[21.8971313,43.3230803],[21.8972105,43.323132],[21.8972903,43.3231876],[21.8973929,43.3232627],[21.8975216,43.3233569],[21.897767,43.3235676],[21.8979541,43.3237345],[21.898162,43.3239111],[21.8984704,43.3241784],[21.8986716,43.3243404],[21.8988017,43.3244448],[21.8989237,43.3245443],[21.8990665,43.3246446],[21.8991946,43.3247427],[21.8993078,43.324821],[21.8994211,43.3248947],[21.8995318,43.3249615],[21.8996244,43.3250217],[21.8997122,43.3250754],[21.8998061,43.325131],[21.8999155,43.3251914],[21.9000476,43.3252641],[21.9001689,43.325327],[21.9002796,43.3253831],[21.900413,43.3254499],[21.9005217,43.3255041],[21.9006658,43.3255709],[21.9007885,43.3256211],[21.9009377,43.3256893],[21.9010947,43.3257552],[21.9012674,43.3258322],[21.9014202,43.3258981],[21.901545,43.3259503],[21.9016677,43.3260044],[21.9017481,43.3260351],[21.9018507,43.3260703],[21.9019942,43.3261176],[21.9021129,43.3261532],[21.9022034,43.3261795],[21.902351,43.326222],[21.9025541,43.3262668],[21.9026842,43.3262951],[21.9031151,43.3263697],[21.9033833,43.3264175],[21.9035805,43.326439],[21.9037776,43.3264585],[21.903956,43.3264721],[21.9043234,43.3264926],[21.904589,43.3265073],[21.9048371,43.326517],[21.9051402,43.3265287],[21.9053527,43.3265331],[21.9055952,43.3265356],[21.9058453,43.3265371],[21.9061121,43.3265361],[21.9064167,43.3265383],[21.906748,43.3265261],[21.9070658,43.3265056],[21.9074608,43.3264714],[21.9077518,43.3264412],[21.9080012,43.3264163],[21.9082762,43.3263827],[21.9086959,43.3263441],[21.9093645,43.3262641],[21.9098044,43.326209],[21.9101738,43.3261783],[21.9106043,43.3261607],[21.9110496,43.3261553],[21.9114284,43.3261641],[21.9117349,43.3261753],[21.9121158,43.3262173],[21.9124524,43.3262583],[21.9127937,43.326307],[21.9130867,43.3263617],[21.9133925,43.3264119],[21.9135782,43.3264431],[21.9137809,43.3264675],[21.9139076,43.3264802],[21.9140578,43.3264905],[21.9142351,43.326499],[21.9143967,43.3265005],[21.9145462,43.3265014],[21.91475,43.3264975],[21.9148875,43.3264917],[21.9150498,43.32648],[21.9152228,43.3264653],[21.9154696,43.3264302],[21.9157378,43.3263785],[21.9159108,43.3263366],[21.9161455,43.3262702],[21.91647,43.3261619],[21.9167535,43.3260562],[21.9170049,43.3259464],[21.9172168,43.3258498],[21.9174823,43.3257425],[21.9178163,43.3256176],[21.9180673,43.325527],[21.9183912,43.3254289],[21.9185481,43.3253806],[21.9188063,43.3253201],[21.9190919,43.3252567],[21.9195282,43.3251809],[21.9199279,43.3251287],[21.9202632,43.3250965],[21.9207567,43.3250438],[21.9209364,43.3250292],[21.921155,43.3250057],[21.9212717,43.3249892],[21.9213776,43.324954],[21.9214635,43.3249043],[21.9215265,43.3248409],[21.9216189,43.3247146],[21.9217148,43.3247395],[21.9217255,43.3247897],[21.9217637,43.3248322],[21.921814,43.3248619],[21.9218623,43.3248761],[21.9219086,43.3248873],[21.9220101,43.3249018],[21.9221509,43.3249028],[21.9228228,43.3248457],[21.9232335,43.3248172],[21.9236854,43.3248191],[21.924006,43.324823],[21.9242836,43.3248386],[21.925009,43.3249142],[21.9253845,43.3249639],[21.9255132,43.3249766],[21.9258767,43.3250312],[21.9262227,43.3251005],[21.9264802,43.3251707],[21.9267994,43.3252732],[21.9270381,43.3253493],[21.927258,43.3254059],[21.9274994,43.3254644],[21.9277998,43.3255151],[21.9281807,43.3255873],[21.9286018,43.325681],[21.9288083,43.325722],[21.9290336,43.3257376],[21.9292536,43.3257376],[21.9295674,43.3257317],[21.9300961,43.3257538],[21.9303442,43.325747],[21.9305842,43.3257528],[21.9307224,43.3257479],[21.930941,43.3256982],[21.931185,43.3256397],[21.9314707,43.3255694],[21.9317631,43.3254679],[21.9319736,43.3253753],[21.9322271,43.3252709],[21.9324336,43.3251811],[21.9327595,43.3250289],[21.9329003,43.324946],[21.9330639,43.3248553],[21.9332195,43.3247753],[21.9334461,43.3246289],[21.9335601,43.3245499],[21.9337023,43.3244601],[21.9338123,43.3243957],[21.9339102,43.3243411],[21.9341194,43.3242172],[21.9341985,43.3241655],[21.9342951,43.3241089],[21.9344573,43.3240006],[21.9347261,43.3238174],[21.934938,43.3237052],[21.9351432,43.3235774],[21.9353028,43.3235062],[21.9354718,43.3234096],[21.9355965,43.3233208],[21.9357105,43.3232321],[21.9358592,43.3231268],[21.9360436,43.3229951],[21.9361495,43.3229161],[21.9362528,43.3228331],[21.9363735,43.3227346],[21.9364754,43.3226556],[21.9365773,43.3225863],[21.936694,43.322516],[21.9368523,43.3224251],[21.9370803,43.3222919],[21.9374848,43.3220948],[21.9377127,43.3220421],[21.9378938,43.3220177],[21.9379112,43.3220187],[21.9380722,43.3219923],[21.9382425,43.3219582],[21.9383377,43.3219162],[21.9384852,43.3218284],[21.9386985,43.3216587],[21.9389063,43.3214752],[21.9390887,43.3212957],[21.9392926,43.3210713],[21.9393301,43.3210063],[21.9394749,43.3209028],[21.9396184,43.3208053],[21.9397807,43.3207077],[21.9399255,43.3206243],[21.9400375,43.3205584],[21.9401428,43.3205057],[21.9402099,43.3204804],[21.9402769,43.3204594],[21.9403466,43.3204243],[21.9404647,43.3203535],[21.940578,43.3202999],[21.9407027,43.3202696],[21.9408382,43.3202306],[21.9409615,43.3201896],[21.9410581,43.320133],[21.9411788,43.3200696],[21.9413746,43.3200003],[21.941553,43.3199525],[21.9417179,43.3199164],[21.941844,43.3199037],[21.9419821,43.3198911],[21.942078,43.3198837],[21.9421699,43.3198652],[21.9422403,43.3198511],[21.9422866,43.3198345],[21.9423442,43.3197998],[21.942423,43.3197567],[21.9424746,43.3197402],[21.9426584,43.3197231],[21.9428227,43.3197143],[21.9430366,43.3197045],[21.943282,43.3196982],[21.943567,43.3196904],[21.9438024,43.319687],[21.9441228,43.3196826],[21.9441714,43.3197055],[21.944232,43.3197162],[21.9443139,43.3197152],[21.9445607,43.3197114],[21.9447277,43.3197056],[21.9448725,43.3196996],[21.9450684,43.3196816],[21.9452474,43.3196763],[21.9454222,43.3196689],[21.9454996,43.3196736],[21.9455999,43.3196606],[21.9457266,43.3196323],[21.9459801,43.3196153],[21.9460813,43.3196099],[21.9462335,43.3196158],[21.9463448,43.3196148],[21.9464923,43.3196114],[21.9466504,43.3196087],[21.9468348,43.3196106],[21.9469099,43.3196111],[21.9470038,43.319616],[21.9472546,43.3196355],[21.9475684,43.3196716],[21.9479251,43.3197282],[21.9480894,43.3197687],[21.948361,43.3198629],[21.9485756,43.3199395],[21.9484921,43.3201081],[21.9483625,43.3203776],[21.9482354,43.3206349],[21.9482354,43.3206356]]},"properties":{"tip":"pesacki_donji","label":"Pešačka staza — donji bedem","uloga":"krak","duzina_m":5245.2,"km_od":2.18,"km_do":7.51,"deonica":"Delta - Lidl"}},{"type":"Feature","geometry":{"type":"LineString","coordinates":[[21.8676261,43.3218925],[21.8680982,43.3222223],[21.8690691,43.3226848],[21.8695546,43.3229111],[21.869718,43.3229923],[21.8698789,43.3230645],[21.8700721,43.3231562],[21.8703269,43.3232772],[21.8705388,43.3233845],[21.8707024,43.3234665],[21.8708767,43.3235543],[21.8710779,43.3236518],[21.8712522,43.3237299],[21.871381,43.3237845],[21.8715661,43.323845],[21.8717189,43.3238996],[21.8719174,43.3239582],[21.8720435,43.3239953],[21.8721803,43.3240304],[21.8724042,43.324086],[21.8726617,43.3241377],[21.8730443,43.3242087],[21.8733085,43.3242584],[21.873566,43.324316],[21.8740528,43.3244116],[21.8743613,43.324476],[21.8746268,43.3245218],[21.8751016,43.3246126],[21.8754315,43.3246818],[21.8756957,43.3247355],[21.8759723,43.3247802],[21.8762834,43.3248251],[21.8766375,43.3248768],[21.8771981,43.3249304],[21.8776017,43.3249626],[21.8781495,43.3249938],[21.8787825,43.3250221],[21.8791258,43.3250358],[21.879912,43.325059],[21.8803841,43.3250864],[21.8807301,43.3251],[21.8811284,43.3250981],[21.8813765,43.3250805],[21.8815375,43.3250665],[21.8816729,43.325047],[21.8818218,43.3250207],[21.8820235,43.3249745],[21.8822555,43.3249053],[21.8825036,43.3248214],[21.8827249,43.3247365],[21.8831974,43.3245078],[21.8832705,43.3244712],[21.8834554,43.3241264],[21.8837612,43.323781],[21.8839865,43.3235488],[21.8841474,43.3234142],[21.8842951,43.3232545],[21.884395,43.3231101],[21.8846041,43.3228357],[21.8848502,43.3225303],[21.8850178,43.3223234]]},"properties":{"tip":"pesacki_donji","label":"Pešačka staza — donji bedem","uloga":"krak","duzina_m":1646.1,"km_od":0.0,"km_do":1.64,"deonica":"Medoševac"}},{"type":"Feature","geometry":{"type":"LineString","coordinates":[[22.0063525,43.303927],[22.0064535,43.3039776],[22.0065151,43.3039993],[22.0065846,43.3040094],[22.0067396,43.303927],[22.0069025,43.3037998],[22.0070698,43.3036977],[22.0072423,43.3035843],[22.0074827,43.3034499],[22.0076893,43.3033679],[22.0079059,43.303258],[22.0081204,43.30318],[22.0083509,43.3030874],[22.0085854,43.3029978],[22.0086628,43.3029472],[22.0086926,43.3028633],[22.0086946,43.302778],[22.0086985,43.3027438]]},"properties":{"tip":"pesacki_donji","label":"Pešačka staza — donji bedem","uloga":"krak","duzina_m":251.0,"km_od":12.96,"km_do":13.19,"deonica":"Niška Banja"}},{"type":"Feature","geometry":{"type":"LineString","coordinates":[[21.9663381,43.3154351],[21.9664304,43.3155616],[21.9666339,43.3158777],[21.9668336,43.316186]]},"properties":{"tip":"pesacki_donji","label":"Pešačka staza — donji bedem","uloga":"krak","duzina_m":92.6,"km_od":9.08,"km_do":9.09,"deonica":null}},{"type":"Feature","geometry":{"type":"LineString","coordinates":[[21.8958395,43.3226105],[21.8958604,43.3224204]]},"properties":{"tip":"pesacki_donji","label":"Pešačka staza — donji bedem","uloga":"krak","duzina_m":21.2,"km_od":2.6,"km_do":2.61,"deonica":"Centar"}}]}